OBJECTID,ADDRESS_911,PUBLIC_NAME,url,PARENT_NAME,OFFICIAL_NAME,ADDRESS_911
1,400 S TANEY ST,William H (Billy) Markward Memorial Playground,"https://www.google.com/maps/place/Markward+Playground/@39.9488339,-75.1819837,17z/data=!4m7!3m6!1s0x89c6c646a3ad37fb:0xad138f611b1d3993!8m2!3d39.9488339!4d-75.1819837!9m1!1b1",Schuylkill River Park,William H. (Billy) Markward Memorial Playground,400 S TANEY ST
2,400 S TANEY ST,Schuylkill Banks,"https://www.google.com/maps/place/Schuylkill+Banks/@39.9521946,-75.1806532,17z/data=!4m7!3m6!1s0x89c6c649a24b08d5:0x469801a321715063!8m2!3d39.9521946!4d-75.1806532!9m1!1b1",Schuylkill Banks,,400 S TANEY ST
3,400 S TANEY ST,Schuylkill River Park,"https://www.google.com/maps/place/Schuylkill+River+Park/@39.9488177,-75.1817665,17z/data=!4m7!3m6!1s0x89c6c7edb4c2cee3:0xd32cb11d8fdc04a5!8m2!3d39.9488177!4d-75.1817665!9m1!1b1",Schuylkill River Park,,400 S TANEY ST
4,5625 TACONY ST,Frankford Boat Launch,"https://www.google.com/maps/place/Frankford+Boat+Launch/@40.0071633,-75.0567562,17z/data=!4m7!3m6!1s0x89c6b5de420f15bd:0xce613efe4fc2fe90!8m2!3d40.0071633!4d-75.0567562!9m1!1b1",Frankford Boat Launch,Frankford Boat Launch,5625 TACONY ST
6,,Wissahickon Valley Park,"https://www.google.com/maps/place/Wissahickon+Valley+Park/@40.0562108,-75.217331,570m/data=!3m1!1e3!4m7!3m6!1s0x89c6b8fea9dcc321:0x275a8d25a572fc48!8m2!3d40.0562108!4d-75.217331!9m1!1b1",Wissahickon Valley Park,Wissahickon Valley Park,
8, ,Pennypack Park,"https://www.google.com/maps/place/Pennypack+Park/@40.0569538,-75.0355272,570m/data=!3m1!1e3!4m7!3m6!1s0x89c6b46dcdb6b46d:0xce867bf401f336a0!8m2!3d40.0569538!4d-75.0355272!9m1!1b1",Pennypack Park,Pennypack Park, 
9, ,East Fairmount Park,"https://www.google.com/maps/place/East+Fairmount+Park/@39.9844549,-75.1970278,570m/data=!3m1!1e3!4m7!3m6!1s0x89c6c7bc99fd29f7:0x4ef4172934c736d5!8m2!3d39.9844549!4d-75.1970278!9m1!1b1",East Fairmount Park,East Fairmount Park, 
10, ,Tacony Creek Park,"https://www.google.com/maps/place/Tacony+Creek+Park/@40.0335999,-75.1129816,570m/data=!3m1!1e3!4m7!3m6!1s0x89c6b7aa7c9256f7:0xf8137c5e6207af18!8m2!3d40.0335999!4d-75.1129816!9m1!1b1",Tacony Creek Park,Tacony Creek Park, 
11,3500 S BROAD ST,Franklin Delano Roosevelt Park,"https://www.google.com/maps/place/FDR+Park/@39.9021375,-75.1838075,571m/data=!3m1!1e3!4m7!3m6!1s0x89c6c136d86fef89:0x2079dc6e2142291f!8m2!3d39.9021375!4d-75.1838075!9m1!1b1",Franklin Delano Roosevelt Park,Franklin Delano Roosevelt (FDR) Park,3500 S BROAD ST
12,1101 W HUNTING PARK AVE,Hunting Park,"https://www.google.com/maps/place/Hunting+Park/@40.0166708,-75.1438234,570m/data=!3m1!1e3!4m7!3m6!1s0x89c6b78d4de5b5dd:0x9c0ef445e53aff61!8m2!3d40.0166708!4d-75.1438234!9m1!1b1",Hunting Park,,1101 W HUNTING PARK AVE
13,6101 ARDLEIGH ST,Awbury Park and Recreation Center,"https://www.google.com/maps/place/Awbury+Park/@40.0523805,-75.1632487,570m/data=!3m1!1e3!4m7!3m6!1s0x89c6b9dbaa034cfb:0x72f1c334c1d6408a!8m2!3d40.0523805!4d-75.1632487!9m1!1b1",Awbury Park and Recreation Center,Awbury Park and Recreation Center,6101 ARDLEIGH ST
14,572 W SPENCER ST,Fisher Park,"https://www.google.com/maps/place/Fisher+Park/@40.0432462,-75.1313848,570m/data=!3m2!1e3!4b1!4m5!3m4!1s0x89c6b772d7282703:0xa4f9217dc48b6b43!8m2!3d40.0432462!4d-75.1313848",Fisher Park,Fisher Park,572 W SPENCER ST
15,7899 MERCURY PL,Eastwick Regional Playground,"https://www.google.com/maps/place/Eastwick+Regional+Playground/@39.9049491,-75.2506942,571m/data=!3m1!1e3!4m7!3m6!1s0x89c6c38975cb67e3:0x8158a6cd8b16e49f!8m2!3d39.9049491!4d-75.2506942!9m1!1b1",Eastwick Regional Playground,Eastwick Regional Playground,7899 MERCURY PL
19,3400 RESERVOIR DR,Sedgley Woods Disc Golf Course,"https://www.google.com/maps/place/Sedgley+Woods+Disc+Golf/@39.9820372,-75.1922289,562m/data=!3m1!1e3!4m7!3m6!1s0x89c6c7a2f73bb4d5:0x54025179dbe140d!8m2!3d39.9820372!4d-75.1922289!9m1!1b1",East Fairmount Park,,3400 RESERVOIR DR
22,600 PORT ROYAL AVE,Al Pearlman Sports Center,"https://www.google.com/maps/place/Al+Pearlman+Sports+Complex/@40.059021,-75.2405065,562m/data=!3m1!1e3!4m7!3m6!1s0x89c6b92e399db4fb:0x80de76ab2947c826!8m2!3d40.059021!4d-75.2405065!9m1!1b1",Al Pearlman Sports Center,,600 PORT ROYAL AVE
25,3601 CHAMOUNIX DR,Chamounix Tennis Courts,"https://www.google.com/maps/place/Friends+of+Chamounix+Tennis+Courts/@39.9993788,-75.2018442,562m/data=!3m1!1e3!4m7!3m6!1s0x89c6c76fb4b57ff7:0x3bde1c112208ef5f!8m2!3d39.9993447!4d-75.2018279!9m1!1b1",West Fairmount Park,,3601 CHAMOUNIX DR
26,3418 SMITH MEMORIAL DR,Smith Memorial Playground and Playhouse,"https://www.google.com/maps/place/Smith+Memorial+Playground+%26+Playhouse/@39.9817254,-75.1956208,562m/data=!3m1!1e3!4m7!3m6!1s0x89c6c7bd386eaaaf:0x1dfff380cb0bc383!8m2!3d39.9817254!4d-75.1956208!9m1!1b1",East Fairmount Park,,3418 SMITH MEMORIAL DR
29,7901 RIDGEWAY ST,Fox Chase School Playground,"https://www.google.com/maps/place/Fox+Chase+Playground/@40.0739637,-75.0839244,561m/data=!3m1!1e3!4m15!1m7!3m6!1s0x89c6b14a29da1565:0xede8339ead0a4ca!2s7901+Ridgeway+St,+Philadelphia,+PA+19111!3b1!8m2!3d40.0741772!4d-75.0820576!3m6!1s0x89c6b14bcf991d75:0xafd5a823435bbf20!8m2!3d40.073!4d-75.0811706!9m1!1b1",Fox Chase Recreation Center,,7901 RIDGEWAY ST
30,300 W NORTHWESTERN AVE,Wissahickon Environmental Center,"https://www.google.com/maps/place/Wissahickon+Environmental+Center+(Tree+House)/@40.0809865,-75.2356441,626m/data=!3m1!1e3!4m7!3m6!1s0x89c6b95bd3f077ff:0x312c456541f68e57!8m2!3d40.0811925!4d-75.233887!9m1!1b1",Wissahickon Valley Park,,300 W NORTHWESTERN AVE
31,3905 FORD RD,Ford Road Playground,"https://www.google.com/maps/place/Ford+Road+Playground/@39.9991299,-75.206463,562m/data=!3m1!1e3!4m7!3m6!1s0x89c6c77b9cf33e2d:0xeb4a4f41cb3c90f0!8m2!3d39.9991299!4d-75.206463!9m1!1b1",West Fairmount Park,,3905 FORD RD
32,8543 VERREE RD,Verree and Susquehanna Playground,"https://www.google.com/maps/place/Champions+Park+Playground/@40.0805854,-75.0692039,571m/data=!3m1!1e3!4m7!3m6!1s0x89c6b15bd67db57d:0x17821f99e7719ddb!8m2!3d40.0805819!4d-75.0673471!9m1!1b1",Pennypack Park,,8543 VERREE RD
33,3261 MASCHER ST,Jose Manuel Collazo Park,"https://www.google.com/maps/place/Jose+Manuel+Collazo+Park/@39.9996408,-75.1306326,562m/data=!3m1!1e3!4m7!3m6!1s0x89c6b7de0502f1e7:0x1fe7388195354aa4!8m2!3d39.9996408!4d-75.1306326!9m1!1b1",Jose Manuel Collazo Park,Jose Manuel Collazo Park,3261 MASCHER ST
45,1101 W HUNTING PARK AVE,Hunting Park Recreation Center,"https://www.google.com/maps/place/Hunting+Park+Recreation+Center/@40.0174374,-75.1438209,562m/data=!3m1!1e3!4m7!3m6!1s0x89c6b7ed39a0dfaf:0x1a11a7169836f36c!8m2!3d40.0174374!4d-75.1438209!9m1!1b1",Hunting Park,Hunting Park Recreation Center,1101 W HUNTING PARK AVE
46,1800 BELMONT MANSION DR,Belmont Plateau,"https://www.google.com/maps/place/Belmont+Plateau/@39.9903243,-75.2126639,562m/data=!3m1!1e3!4m7!3m6!1s0x89c6c76dec48bff5:0x81790e193304fe94!8m2!3d39.9903243!4d-75.2126639!9m1!1b1",West Fairmount Park,,1800 BELMONT MANSION DR
47,2100 RESERVOIR DR,Edgley Fields,"https://www.google.com/maps/place/Edgley+Field/@39.9910565,-75.1921085,562m/data=!3m1!1e3!4m7!3m6!1s0x89c6c79c78bd1e93:0x699c4e8d64eae733!8m2!3d39.9910565!4d-75.1921085!9m1!1b1",East Fairmount Park,Edgley Fields,2100 RESERVOIR DR
48,3700 MOUNT PLEASANT DR,Dairy Fields,"https://www.google.com/maps/place/Dairy+Field/@39.9864262,-75.1973391,562m/data=!3m1!1e3!4m7!3m6!1s0x89c6c79ee3b112cd:0x59e41d12974a8eee!8m2!3d39.9864262!4d-75.1973391!9m1!1b1",East Fairmount Park,,3700 MOUNT PLEASANT DR
49,6901 HENRY AVE,Salvatore Pachella Memorial Field,"https://www.google.com/maps/place/Salvatore+Pachella+Field/@40.0456995,-75.2189776,591m/data=!3m1!1e3!4m15!1m7!3m6!1s0x89c6b8e2099be6ed:0xeeab50d0bb4f8151!2s6901+Henry+Ave,+Philadelphia,+PA+19128!3b1!8m2!3d40.0461841!4d-75.2176902!3m6!1s0x89c6b9312ebbbd8b:0x99eddb404d1ffe8d!8m2!3d40.045787!4d-75.2159473!9m1!1b1",Wissahickon Valley Park,Salvatore Pachella Memorial Field,6901 HENRY AVE
51,5366 HERMIT LN,David P Montgomery Field,"https://www.google.com/maps/place/The+Dell+Music+Center/@39.9963142,-75.1899289,562m/data=!3m1!1e3!4m7!3m6!1s0x89c6c7858c0848fd:0xc8c9888d40d2b84d!8m2!3d39.9964845!4d-75.1897967!9m1!1b1",Wissahickon Valley Park,David P. Montgomery Field,5366 HERMIT LN
52,3101 STRAWBERRY MANSION DR,Dell Music Center,"https://www.google.com/maps/place/The+Dell+Music+Center/@39.9963142,-75.1899289,570m/data=!3m1!1e3!4m7!3m6!1s0x89c6c7858c0848fd:0xc8c9888d40d2b84d!8m2!3d39.9964845!4d-75.1897967!9m1!1b1",East Fairmount Park,The Dell Music Center,3101 STRAWBERRY MANSION DR
57,5901 HENRY AVE,John F Boyce Memorial Field,"https://www.google.com/maps/place/John+Boyce+Memorial+field/@40.0315897,-75.2077078,570m/data=!3m1!1e3!4m7!3m6!1s0x89c6b8f6d2616841:0x1708356df2679250!8m2!3d40.0315897!4d-75.2077078!9m1!1b1",Wissahickon Valley Park,John F. Boyce Memorial Field,5901 HENRY AVE
59,8600 VERREE RD,Pennypack Environmental Center,"https://www.google.com/maps/place/Pennypack+Environmental+Center/@40.0876249,-75.0595471,570m/data=!3m1!1e3!4m7!3m6!1s0x89c6b35932e3be1f:0x8b1e2011ebdb8036!8m2!3d40.0875152!4d-75.0595477!9m1!1b1",Pennypack Park,,8600 VERREE RD
60,7900 LANSDOWNE AVE,Cobbs Creek Golf Club,"https://www.google.com/maps/place/Cobbs+Creek+Golf+Club/@39.9674995,-75.2653248,571m/data=!3m1!1e3!4m7!3m6!1s0x89c6c124000bba83:0x654d60c18d9b72ed!8m2!3d39.9674792!4d-75.2652195!9m1!1b1",Cobbs Creek Park,Cobbs Creek Golf Club,7900 LANSDOWNE AVE
61,8201 STATE RD,Pennypack on the Delaware,"https://www.google.com/maps/place/Pennypack+On+The+Delaware+Park/@40.030793,-75.0223833,570m/data=!3m1!1e3!4m7!3m6!1s0x89c6b4f8507df20d:0x60eb6fd8e39b6752!8m2!3d40.030793!4d-75.0223833!9m1!1b1",Pennypack on the Delaware,,8201 STATE RD
62,8821 PINE RD,Fox Chase Farm,"https://www.google.com/maps/place/Fox+Chase+Farm/@40.088858,-75.072112,570m/data=!3m1!1e3!4m7!3m6!1s0x89c6b168f5b69999:0xb85da5001705c6b5!8m2!3d40.088858!4d-75.072112!9m1!1b1",Fox Chase Farm,,8821 PINE RD
63,6600 SHERWOOD RD,Morris Park,"https://www.google.com/maps/place/Morris+Park/@39.9778078,-75.2581148,570m/data=!3m1!1e3!4m7!3m6!1s0x89c6c0daf65f9373:0xe9777b24352e1386!8m2!3d39.9778078!4d-75.2581148!9m1!1b1",Morris Park,Morris Park,6600 SHERWOOD RD
64,1391 E CAYUGA ST,Juniata Golf Club,"https://www.google.com/maps/place/Juniata+Golf+Club/@40.0140877,-75.0998379,570m/data=!3m1!1e3!4m7!3m6!1s0x89c6b64907586f3b:0x8610e269758aa69!8m2!3d40.0139921!4d-75.0998591!9m1!1b1",Tacony Creek Park,Juniata Golf Club,1391 E CAYUGA ST
65,5819 MAGDALENA ST,Walnut Lane Golf Club,"https://www.google.com/maps/place/Walnut+Lane+Golf+Club/@40.0295953,-75.2021668,570m/data=!3m1!1e3!4m7!3m6!1s0x89c6b8f606b3ce71:0x6d7793fa9ace25b8!8m2!3d40.0295953!4d-75.2021668!9m1!1b1",Wissahickon Valley Park,Walnut Lane Golf Club,5819 MAGDALENA ST
67,9550 LEON ST,John F Byrne Golf Club,"https://www.google.com/maps/place/John+F.+Byrne+Golf+Club/@40.0601866,-74.9979317,570m/data=!3m1!1e3!4m7!3m6!1s0x89c6b362305100b5:0x36220551fe32f02c!8m2!3d40.0601031!4d-74.9978542!9m1!1b1",John F Byrne Golf Club,John F. Byrne Golf Club,9550 LEON ST
70,100 SPRING LN,Manatawna Farm,"https://www.google.com/maps/place/Manatawna+Farms/@40.0582039,-75.2584376,570m/data=!3m1!1e3!4m7!3m6!1s0x89c6bed095f9c397:0x8f6deda0098bfb6a!8m2!3d40.0582039!4d-75.2584376!9m1!1b1",Manatawna Farm,,100 SPRING LN
,,Fluehr Park,"https://www.google.com/maps/place/Friends+of+Fluehr+Park/@40.0540883,-74.9938454,1141m/data=!3m1!1e3!4m15!1m7!3m6!1s0x89c6b4a1b5e85b41:0x81eb55429e16a86d!2sFluehr+Park,+Philadelphia,+PA+19114!3b1!8m2!3d40.0550821!4d-74.9902807!3m6!1s0x89c6b4a74d0b0ef5:0xde097dcb071f42fb!8m2!3d40.0546455!4d-74.987236!9m1!1b1",,,
71,1998 BELFIELD AVE,Wisters Woods Park,"https://www.google.com/maps/place/Wister+wood/@40.0359098,-75.1601738,1142m/data=!3m1!1e3!4m15!1m7!3m6!1s0x89c6b82a6263a173:0xc2f360b4851a4fce!2s1998+Belfield+Ave,+Philadelphia,+PA+19144!3b1!8m2!3d40.0360814!4d-75.1555585!3m6!1s0x89c6b829f6b4336d:0xbf9e63cc58b9dea!8m2!3d40.0332194!4d-75.1555533!9m1!1b1",Wisters Woods Park,,1998 BELFIELD AVE
72,4200 HORTICULTURAL DR,Fairmount Park Horticulture Center,"https://www.google.com/maps/place/Fairmount+Park+Horticulture+Center/@39.9834,-75.2102016,570m/data=!3m2!1e3!5s0x89c6c70d03615403:0xddae397e76b7216!4m7!3m6!1s0x89c6c70ce7fcf27f:0x47adcd0b70738a5a!8m2!3d39.9834!4d-75.2102016!9m1!1b1",West Fairmount Park,Fairmount Park Horticulture Center,4200 HORTICULTURAL DR
74,5400 LINDBERGH BLVD,Bartrams Garden,"https://www.google.com/maps/place/Bartram's+Garden/@39.9327414,-75.2122015,571m/data=!3m1!1e3!4m7!3m6!1s0x89c6c684efff3599:0x6bdeffbb106d9eb4!8m2!3d39.9327414!4d-75.2122015!9m1!1b1",Bartrams Garden,Bartram's Garden National Historic Landmark,5400 LINDBERGH BLVD
75,5801 FRANKFORD AVE,Wissinoming Park,"https://www.google.com/maps/place/Wissinoming+Park/@40.0264499,-75.0684974,570m/data=!3m1!1e3!4m7!3m6!1s0x89c6b67c4996b3cd:0xea51dba480bdaabf!8m2!3d40.0264499!4d-75.0684974!9m1!1b1",Wissinoming Park,Wissinoming Park,5801 FRANKFORD AVE
76,4600 MORRIS ST,Fernhill Park,"https://www.google.com/maps/place/Fernhill+Park/@40.0195082,-75.1684009,570m/data=!3m1!1e3!4m7!3m6!1s0x89c6b817b945e281:0x44476ec0a08ff8e0!8m2!3d40.0195082!4d-75.1684009!9m1!1b1",Fernhill Park,,4600 MORRIS ST
77,601 PORT ROYAL AVE,Roxborough Reservoir Park,"https://www.google.com/maps/place/Upper+Roxborough+Reservoir+Preserve/@40.0577252,-75.2400081,571m/data=!3m1!1e3!4m15!1m7!3m6!1s0x89c6b930132c42bd:0x2e207bdf164d74ec!2s601+Port+Royal+Ave,+Philadelphia,+PA+19128!3b1!8m2!3d40.0587352!4d-75.239064!3m6!1s0x89c6b92ef0830bf3:0x93736a81b76ecd37!8m2!3d40.0566006!4d-75.2399004!9m1!1b1",Roxborough Reservoir Park,Roxborough Reservoir Park,601 PORT ROYAL AVE
78,4500 MAIN ST,Manayunk Canal,"https://www.google.com/maps/place/Manayunk+Canal/@40.037381,-75.2418899,562m/data=!3m1!1e3!4m7!3m6!1s0x89c6b8cf1faa24f7:0x2a739227dfe75cf0!8m2!3d40.037381!4d-75.2418899!9m1!1b1",Manayunk Canal,,4500 MAIN ST
80,2999 HOLME AVE,Holme Crispin Park,"https://www.google.com/maps/place/Holme+Crispin+Park/@40.0572779,-75.0204098,562m/data=!3m1!1e3!4m7!3m6!1s0x89c6b47935a75b23:0xf82c2fcdf2474c8!8m2!3d40.0572779!4d-75.0204098!9m1!1b1",Holme Crispin Park,,2999 HOLME AVE
81,6447 KEYSTONE ST,Disston Park,"https://www.google.com/maps/place/Disston+Park/@40.0220579,-75.0423304,562m/data=!3m1!1e3!4m7!3m6!1s0x89c6b5cb6c60e7d7:0xd169b594f014620a!8m2!3d40.0220579!4d-75.0423304!9m1!1b1",Disston Park,,6447 KEYSTONE ST
83,12770 DUNKS FERRY RD,Jim Junod Recreation Center,"https://www.google.com/maps/place/Junod+Recreation+Center/@40.1028673,-74.9694521,547m/data=!3m1!1e3!4m7!3m6!1s0x89c6b2d2cbb3fd8f:0x45ee6996bfea78e9!8m2!3d40.1028047!4d-74.96944!9m1!1b1",Jim Junod Recreation Center,Jim Junod Recreation Center,12770 DUNKS FERRY RD
84,2972 COMLY RD,Michael Palmer Playground,"https://www.google.com/maps/place/Palmer+Playground/@40.0952593,-74.9895275,547m/data=!3m1!1e3!4m7!3m6!1s0x89c6b321a0e8a85d:0x42341bcfab5f48df!8m2!3d40.0952593!4d-74.9895275!9m1!1b1",Michael Palmer Playground,Michael Palmer Playground,2972 COMLY RD
85,2900 N 29TH ST,29th and Chalmers Playground,"https://www.google.com/maps/place/29th+%26+Chalmers+Playground/@39.9987551,-75.1799335,547m/data=!3m1!1e3!4m7!3m6!1s0x89c6c78b1764cc29:0xacb8cc7dd5ce898f!8m2!3d39.9987551!4d-75.1799335!9m1!1b1",29th and Chalmers Playground,,2900 N 29TH ST
86,2102 N 33RD ST,Joseph E Mander Playground,"https://www.google.com/maps/place/Joseph+E.+Mander+Playground/@39.9890371,-75.1876574,548m/data=!3m1!1e3!4m7!3m6!1s0x89c6c790eefc557f:0xa73deaf53cb9fb04!8m2!3d39.9890371!4d-75.1876574!9m1!1b1",East Fairmount Park,Joseph E. Mander Playground,2102 N 33RD ST
87,6424 RIDGE AVE,Susan Gorgas Park,"https://www.google.com/maps/place/Gorgas+Park/@40.0373064,-75.2212201,547m/data=!3m1!1e3!4m7!3m6!1s0x89c6b8e88f51a9c9:0x3bc8137f49807ddb!8m2!3d40.0373064!4d-75.2212201!9m1!1b1",Susan Gorgas Park,Susan Gorgas Park,6424 RIDGE AVE
88,2700 S BROAD ST,Marconi Plaza,"https://www.google.com/maps/place/MARCONI+PLAZA/@39.9156668,-75.1711279,548m/data=!3m1!1e3!4m7!3m6!1s0x89c6c5e3ee3372c7:0x12bd6837ad1f2f64!8m2!3d39.9156668!4d-75.1711279!9m1!1b1",Marconi Plaza,Marconi Plaza,2700 S BROAD ST
89,4800 FORT MIFFLIN RD,Fort Mifflin,"https://www.google.com/maps/place/Fort+Mifflin/@39.8752292,-75.2131426,548m/data=!3m1!1e3!4m7!3m6!1s0x89c6c4f064ad9f3f:0x691c8731535a4633!8m2!3d39.8752114!4d-75.213105!9m1!1b1",Fort Mifflin,Fort Mifflin,4800 FORT MIFFLIN RD
90,6801 GROVERS AVE,J Francis Finnegan Playground,"https://www.google.com/maps/place/D+Finnegan+Playground/@39.9376703,-75.1930882,548m/data=!3m1!1e3!4m7!3m6!1s0x89c6c6641de372ff:0xb3c037394e55682c!8m2!3d39.9376703!4d-75.1930882!9m1!1b1",J Francis Finnegan Playground,J. Francis Finnegan Playground,6801 GROVERS AVE
91,6030 RISING SUN AVE,Lawncrest Recreation Center,"https://www.google.com/maps/place/Lawncrest+Recreation+Center/@40.0454474,-75.1008804,547m/data=!3m1!1e3!4m7!3m6!1s0x89c6b6e6a9094dd9:0xedb46e39d3e01b83!8m2!3d40.0453848!4d-75.1009749!9m1!1b1",Lawncrest Recreation Center,Lawncrest Recreation Center,6030 RISING SUN AVE
92,200 W HARTWELL LN,Pastorius Park,"https://www.google.com/maps/place/Pastorius+Park/@40.0707524,-75.2051232,547m/data=!3m1!1e3!4m7!3m6!1s0x89c6b9a217fb1743:0xbb91df8f632ee774!8m2!3d40.0707524!4d-75.2051232!9m1!1b1",Pastorius Park,Pastorius Park,200 W HARTWELL LN
93,4351 UNRUH AVE,Joseph F Vogt Playground,"https://www.google.com/maps/place/Vogt+Park/@40.0298613,-75.050236,547m/data=!3m1!1e3!4m7!3m6!1s0x89c6b42e08692123:0xf19d1c2cb4683452!8m2!3d40.0298613!4d-75.050236!9m1!1b1",Joseph F Vogt Playground,Joseph F. Vogt Playground,4351 UNRUH AVE
94,4801 DEVEREAUX AVE,American Legion Playground,"https://www.google.com/maps/place/AMERICAN+LEGION+RECREATION+CENTER/@40.0185219,-75.0543771,571m/data=!3m1!1e3!4m15!1m7!3m6!1s0x89c6b5d12f9d7975:0x81d12a98e7e63530!2s4801+Devereaux+St,+Philadelphia,+PA+19135!3b1!8m2!3d40.0185219!4d-75.0543771!3m6!1s0x89c6b5d11aa756a5:0xb417f3b170f6d420!8m2!3d40.0182193!4d-75.0531504!9m1!1b1",American Legion Playground,American Legion Playground,4801 DEVEREAUX AVE
95,4500 LINDEN AVE,George Jacobs Playground,"https://www.google.com/maps/place/Jacobs+Playground/@40.0516668,-75.0018833,562m/data=!3m1!1e3!4m7!3m6!1s0x89c6b49b4bfd68cf:0x17a55f1899e1fff7!8m2!3d40.0516668!4d-75.0018833!9m1!1b1",George Jacobs Playground,George Jacobs Playground,4500 LINDEN AVE
96,7901 RIDGEWAY ST,Fox Chase Recreation Center,"https://www.google.com/maps/place/Fox+Chase+Recreation+Center/@40.0746338,-75.0814066,561m/data=!3m2!1e3!5s0x89c6b14985e4b7b7:0x80dec86d8a72aacb!4m7!3m6!1s0x89c6b1498de929af:0xa17ae77a0c494c22!8m2!3d40.0746338!4d-75.0814066!9m1!1b1",Fox Chase Recreation Center,Fox Chase Recreation Center,7901 RIDGEWAY ST
98,7224 WOOLSTON AVE,William B Simons Recreation Center,"https://www.google.com/maps/place/Simons+recreation+center/@40.0618253,-75.1572688,562m/data=!3m1!1e3!4m7!3m6!1s0x89c6b9429e098603:0x9a42184f57f9bf4b!8m2!3d40.0618253!4d-75.1572688!9m1!1b1",William B Simons Recreation Center,,7224 WOOLSTON AVE
99,199 E SPENCER AVE,Olney Recreation Center,"https://www.google.com/maps/place/Olney+Recreation+Center/@40.0427437,-75.1172757,562m/data=!3m1!1e3!4m7!3m6!1s0x89c6b7057560368b:0x1c7927a00bc497ad!8m2!3d40.0428979!4d-75.1172413!9m1!1b1",Olney Recreation Center,Olney Recreation Center,199 E SPENCER AVE
101,7301 TORRESDALE AVE,Charles A Russo Playground,"https://www.google.com/maps/place/Russo+Park+Playground/@40.0301628,-75.0343017,562m/data=!3m1!1e3!4m7!3m6!1s0x89c6b449ab706725:0xbd7aabbf0f807440!8m2!3d40.0302689!4d-75.0343314!9m1!1b1",Charles A Russo Playground,Charles A. Russo Playground,7301 TORRESDALE AVE
102,1805 HELLERMAN ST,Max Myers Playground,"https://www.google.com/maps/place/Max+Myers+Recreation+Center/@40.0383408,-75.0702405,562m/data=!3m1!1e3!4m7!3m6!1s0x89c6b69ad95746bb:0xe791607b8d31cb61!8m2!3d40.0383408!4d-75.0702405!9m1!1b1",Max Myers Playground,Max Myers Playground,1805 HELLERMAN ST
103,4340 DEERPATH LN,Corporal Jimmy OConnor Memorial Playground,"https://www.google.com/maps/place/Chalfont+Playground/@40.079246,-74.974776,561m/data=!3m1!1e3!4m15!1m7!3m6!1s0x89c6b336b84c362b:0xa2ad489002fc6847!2s4340+Deerpath+Ln,+Philadelphia,+PA+19154!3b1!8m2!3d40.079246!4d-74.974776!3m6!1s0x89c6b336b264944d:0xbf2e5233ddc9a60c!8m2!3d40.079652!4d-74.9742597!9m1!1b1",Corporal Jimmy OConnor Memorial Playground,Corporal Jimmy O'Connor Memorial Playground,4340 DEERPATH LN
104,4842 RIDGE AVE,Gustine Recreation Center,"https://www.google.com/maps/place/Gustine+Recreation+Center/@40.0135146,-75.2036909,562m/data=!3m1!1e3!4m7!3m6!1s0x89c6b886244f5b5f:0x3c96bea27f27e92c!8m2!3d40.0136792!4d-75.2036141!9m1!1b1",Gustine Recreation Center,Gustine Recreation Center,4842 RIDGE AVE
105,4301 CHESTER AVE,Clarence H Clark Park,"https://www.google.com/maps/place/Clark+Park/@39.9486463,-75.2093267,562m/data=!3m1!1e3!4m15!1m7!3m6!1s0x89c6c6f3b76a00b7:0xa476bb4796e0186b!2s4301+Chester+Ave,+Philadelphia,+PA+19104!3b1!8m2!3d39.9486458!4d-75.209321!3m6!1s0x89c6c6f249912c6f:0xda57de4e2411900c!8m2!3d39.9488973!4d-75.2104142!9m1!1b1",Clarence H Clark Park,,4301 CHESTER AVE
106,1165 BARTLETT ST,William A Lackman Memorial Playground,"https://www.google.com/maps/place/LACKMAN+Parks+%26+Recreation+center/@40.0996515,-75.0353071,570m/data=!3m1!1e3!4m15!1m7!3m6!1s0x89c6b3b444d95df1:0x73e8a7afee80f4e0!2s1165+Bartlett+St,+Philadelphia,+PA+19115!3b1!8m2!3d40.1000866!4d-75.0341005!3m6!1s0x89c6b3b4f66fc761:0xa85b1a2f8eec3bd8!8m2!3d40.100407!4d-75.0337995!9m1!1b1",William A Lackman Memorial Playground,William A. Lackman Memorial Playground,1165 BARTLETT ST
107,1900 WAKELING ST,William (Billy) Gambrel Playground,"https://www.google.com/maps/place/Gambrel+Playground/@40.0139223,-75.0753507,562m/data=!3m1!1e3!4m7!3m6!1s0x89c6b66e8245e8f1:0x1b23fe1c420e9c4!8m2!3d40.0139223!4d-75.0753507!9m1!1b1",William (Billy) Gambrel Playground,William (Billy) Gambrel Playground,1900 WAKELING ST
109,2150 WAKELING ST,Carmella A DiTizio Playground,"https://www.google.com/maps/place/Carmella+Playground/@40.0107923,-75.0756728,570m/data=!3m1!1e3!4m15!1m7!3m6!1s0x89c6b66d88bfb313:0x53228db3e615c949!2s2150+Wakeling+St,+Philadelphia,+PA+19124!3b1!8m2!3d40.0108697!4d-75.0730769!3m6!1s0x89c6b66dfc50e7e5:0x13efcf740f4ceb90!8m2!3d40.0113676!4d-75.074391!9m1!1b1",Carmella A DiTizio Playground,Carmella A. DiTizio Playground,2150 WAKELING ST
110,2138 SOLLY AVE,George C Pelbano Playground,"https://www.google.com/maps/place/Rhawnhurst+Recreation+Center/@40.0616533,-75.0524106,562m/data=!3m1!1e3!4m15!1m7!3m6!1s0x89c6b407b3fcddff:0x7caa559a06067da0!2s2138+Solly+Ave,+Philadelphia,+PA+19152!3b1!8m2!3d40.0627618!4d-75.0513484!3m6!1s0x89c6b407aff75787:0x9dda9240342df1a8!8m2!3d40.0618264!4d-75.0508577!9m1!1b1",George C Pelbano Playground,George C. Pelbano Playground,2138 SOLLY AVE
111,1101 E CAYUGA ST,Joseph A Ferko Playground,"https://www.google.com/maps/place/Ferko+Playground/@40.0146146,-75.1054999,562m/data=!3m1!1e3!4m7!3m6!1s0x89c6b64b030516a5:0x3735f744518624a8!8m2!3d40.0146146!4d-75.1054999!9m1!1b1",Tacony Creek Park,Joseph A. Ferko Playground,1101 E CAYUGA ST
112,4849 SMICK ST,Germany Hill,"https://www.google.com/maps/place/Germany+Hill/@40.0347697,-75.2322614,562m/data=!3m1!1e3!4m7!3m6!1s0x89c6b8c44f1da213:0x3cafe300c1322329!8m2!3d40.0347697!4d-75.2322614!9m1!1b1",Germany Hill,,4849 SMICK ST
113,1400 COTTMAN AVE,Thomas E Jardel Memorial Field,"https://www.google.com/maps/place/Jardel+Playground/@40.0556217,-75.0784534,571m/data=!3m1!1e3!4m15!1m7!3m6!1s0x89c6b6baf80e26af:0x8eb573ca09089cc8!2s1400+Cottman+Ave,+Philadelphia,+PA+19111!3b1!8m2!3d40.0562362!4d-75.0758069!3m6!1s0x89c6b6ba4aab8625:0xa410e8eea36a289e!8m2!3d40.0555059!4d-75.0768107!9m1!1b1",Thomas E Jardel Memorial Field,Thomas E. Jardel Memorial Field,1400 COTTMAN AVE
115,1699 W COURTLAND ST,Stenton Park,"https://www.google.com/maps/place/Stenton+Park+Advisory+Council/@40.0238394,-75.154128,562m/data=!3m1!1e3!4m15!1m7!3m6!1s0x89c6b789f3b1b595:0x796bfcacba37f4b5!2s1699+W+Courtland+St,+Philadelphia,+PA+19140!3b1!8m2!3d40.0236258!4d-75.1533019!3m6!1s0x89c6b7bbf991cf69:0xad97d7d85702d8ef!8m2!3d40.0245594!4d-75.1521927!9m1!1b1",Stenton Park,Stenton Park,1699 W COURTLAND ST
116,3280 HOLME AVE,Thomas Holme School Playground,"https://www.google.com/maps/place/Thomas+Holme/@40.0559685,-75.013623,636m/data=!3m1!1e3!4m15!1m7!3m6!1s0x89c6b480efa388bf:0x1468271d6816b899!2s3280+Holme+Ave,+Philadelphia,+PA+19114!3b1!8m2!3d40.0565832!4d-75.0116761!3m6!1s0x89c6b4809319cbbf:0x9875a8579ee20428!8m2!3d40.0561485!4d-75.0117645!9m1!1b1",Thomas Holme School Playground,Thomas Holme School Playground,3280 HOLME AVE
117,6839 LANSDOWNE AVE,Charles A Papa Playground,"https://www.google.com/maps/place/Papa+Playground/@39.9743255,-75.2564537,562m/data=!3m2!1e3!4b1!4m5!3m4!1s0x89c6c0d6f088ff93:0x2e66624ab5be1ae3!8m2!3d39.9743255!4d-75.2564537",Morris Park,Charles A. Papa Playground,6839 LANSDOWNE AVE
118,267 E HARTWELL LN,Water Tower Recreation Center,"https://www.google.com/maps/place/Water+Tower+Recreation+Center/@40.075485,-75.2007148,561m/data=!3m1!1e3!4m7!3m6!1s0x89c6b977ffb048b1:0xc5548064103752e6!8m2!3d40.075485!4d-75.2007148!9m1!1b1",Water Tower Recreation Center,Water Tower Recreation Center,267 E HARTWELL LN
119,3340 SOLLY AVE,James J Ramp Playground,"https://www.google.com/maps/place/James+Ramp+Playground/@40.0480254,-75.0241479,562m/data=!3m1!1e3!4m7!3m6!1s0x89c6b465a2a55dd3:0xc0a15b726b58ee89!8m2!3d40.0480254!4d-75.0241479!9m1!1b1",James J Ramp Playground,James J. Ramp Playground,3340 SOLLY AVE
121,10815 CALERA RD,Elizabeth M Picariello Playground,"https://www.google.com/maps/place/Picariello+Playground/@40.0807342,-74.989638,561m/data=!3m1!1e3!4m7!3m6!1s0x89c6b33e15429653:0x79116ec744830c62!8m2!3d40.0807342!4d-74.989638!9m1!1b1",Elizabeth M Picariello Playground,Elizabeth M. Picariello Playground,10815 CALERA RD
122,1950 W LEHIGH AVE,Reyburn Park,"https://www.google.com/maps/place/Reyburn+Park/@39.9949173,-75.1651177,562m/data=!3m1!1e3!4m7!3m6!1s0x89c6c7fa1b1f592d:0xdb4956c18630c258!8m2!3d39.9949173!4d-75.1651177!9m1!1b1",Reyburn Park,,1950 W LEHIGH AVE
123,9050 TORRESDALE AVE,Ronald Trumbette Playground,"https://www.google.com/maps/place/Trumbette+Playground/@40.0483741,-75.0054168,562m/data=!3m1!1e3!4m7!3m6!1s0x89c6b4855dd3757d:0xe3a16a2426bbbc5a!8m2!3d40.0483741!4d-75.0054168!9m1!1b1",Ronald Trumbette Playground,,9050 TORRESDALE AVE
124,6350 FRONTENAC ST,Seymour Tarken Recreation Center,"https://www.google.com/maps/place/Tarken+Playground/@40.0404863,-75.0841145,562m/data=!3m1!1e3!4m14!1m6!3m5!1s0x89c6b6929a1ccb17:0xa4bced9b80e9bf35!2sTarken+Recreation+Center!8m2!3d40.0402676!4d-75.0822489!3m6!1s0x89c6b692e50ed1a9:0xd349e6813412d753!8m2!3d40.041224!4d-75.0826507!9m1!1b1",Seymour Tarken Recreation Center,Seymour Tarken Recreation Center,6350 FRONTENAC ST
125,3300 RESERVOIR DR,33rd and Oxford Driving Range,"https://www.google.com/maps/place/Strawberry+Green+Driving+Range/@39.9805233,-75.1927926,945m/data=!3m1!1e3!4m14!1m6!3m5!1s0x89c6c7bd386eaaaf:0xaa30c5968e8a6b13!2s33rd+St+%26+Oxford+St!8m2!3d39.9813582!4d-75.1887558!3m6!1s0x89c6c7bcd6d5ec59:0x906030394f10d7b4!8m2!3d39.9807814!4d-75.1891608!9m1!1b1",East Fairmount Park,,3300 RESERVOIR DR
126,900 E GODFREY AVE,Edward Houseman Playground,"https://www.google.com/maps/place/Houseman+Playground/@40.0302543,-75.0930557,562m/data=!3m1!1e3!4m7!3m6!1s0x89c6b658611b48c9:0x1def5bdcb3aabfc1!8m2!3d40.0302543!4d-75.0930557!9m1!1b1",Edward Houseman Playground,Edward Houseman Playground,900 E GODFREY AVE
127,994 SEQUOIA RD,Samuel F Houston Playground,"https://www.google.com/maps/place/Houston+Playground/@40.0693387,-75.2307685,561m/data=!3m1!1e3!4m7!3m6!1s0x89c6b9389cb9976b:0x9ed561685024d8c0!8m2!3d40.0693387!4d-75.2307685!9m1!1b1",Wissahickon Valley Park,Samuel F. Houston Playground,994 SEQUOIA RD
128,5754 GERMANTOWN AVE,Vernon Park,"https://www.google.com/maps/place/Vernon+Park/@40.0356086,-75.1767169,562m/data=!3m1!1e3!4m7!3m6!1s0x89c6b8360c300ef1:0x9b4fa66b96e33550!8m2!3d40.0356086!4d-75.1767169!9m1!1b1",Vernon Park,,5754 GERMANTOWN AVE
129,5700 HAVERFORD AVE,Haddington-Marshall L Shepard Sr Recreation Center,"https://www.google.com/maps/place/Shepard+Recreation+Center/@39.9671457,-75.2339592,562m/data=!3m1!1e3!4m7!3m6!1s0x89c6c6d840906f8f:0x7d8430608e8055c6!8m2!3d39.9672262!4d-75.2339413!9m1!1b1",Haddington-Marshall L Shepard Sr Recreation Center,"Haddington-Marshall L. Shepard, Sr. Recreation Center",5700 HAVERFORD AVE
130,1299 BEACH ST,Penn Treaty Park,"https://www.google.com/maps/place/Penn+Treaty+Park/@39.9662739,-75.1284795,562m/data=!3m1!1e3!4m7!3m6!1s0x89c6c842e82a2747:0x9949169f370a2aab!8m2!3d39.9662739!4d-75.1284795!9m1!1b1",Penn Treaty Park,,1299 BEACH ST
132,5878 RIDGE AVE,W Freeland Kendrick Recreation Center,"https://www.google.com/maps/place/Kendrick+Recreation+Center/@40.0293641,-75.2111498,562m/data=!3m1!1e3!4m7!3m6!1s0x89c6b8f244fa6a1b:0x77af2e0421816ee5!8m2!3d40.0293641!4d-75.2111498!9m1!1b1",W Freeland Kendrick Recreation Center,W. Freeland Kendrick Recreation Center,5878 RIDGE AVE
134,4625 RICHMOND ST,Bridesburg Recreation Center,"https://www.google.com/maps/place/Bridesburg+Recreation+Center/@39.9995129,-75.0678554,562m/data=!3m1!1e3!4m7!3m6!1s0x89c6b60f1d6f832d:0xa3a3afeb007bd087!8m2!3d39.9997251!4d-75.0680452!9m1!1b1",Bridesburg Recreation Center,Bridesburg Recreation Center,4625 RICHMOND ST
137,5800 CHESTER AVE,Francis J Myers Recreation Center,"https://www.google.com/maps/place/Francis+Myers+Recreation+Center/@39.93465,-75.227808,563m/data=!3m1!1e3!4m7!3m6!1s0x89c6c6a3abfaad3b:0x69d7872197ecda5!8m2!3d39.93465!4d-75.227808!9m1!1b1",Francis J Myers Recreation Center,Francis J. Myers Recreation Center,5800 CHESTER AVE
139,2200 S 24TH ST,Thomas B Smith Recreation Center,"https://www.google.com/maps/place/Smith+Playground/@39.9239962,-75.1891635,525m/data=!3m1!1e3!4m15!1m7!3m6!1s0x89c6c677a5a655bb:0x76ef9395dc0f957c!2s2200+S+24th+St,+Philadelphia,+PA+19145!3b1!8m2!3d39.924197!4d-75.187495!3m6!1s0x89c6c677225f79ab:0x1bc26d4ca0e514eb!8m2!3d39.9259645!4d-75.1871911!9m1!1b1",Thomas B Smith Recreation Center,Thomas B. Smith Recreation Center,2200 S 24TH ST
140,1800 WALNUT ST,Rittenhouse Square,"https://www.google.com/maps/place/Rittenhouse+Square/@39.9482739,-75.1760056,1125m/data=!3m1!1e3!4m15!1m7!3m6!1s0x89c6c63ba89a53cd:0x9a21f09ff2e9fc3c!2sRittenhouse+Square,+Philadelphia,+PA!3b1!8m2!3d39.9494655!4d-75.1718643!3m6!1s0x89c6c63a1dab0121:0x15ad49109c3af7a1!8m2!3d39.9494818!4d-75.1718835!9m1!1b1",Rittenhouse Square,Rittenhouse Square,1800 WALNUT ST
141,7401 LANSDOWNE AVE,Samuel Rose Recreation Center,"https://www.google.com/maps/place/Rose+Playground/@39.9724729,-75.2622649,738m/data=!3m1!1e3!4m15!1m7!3m6!1s0x89c6c0d80495e24f:0xa98ee9b79ce2b598!2s7401+Lansdowne+Ave,+Philadelphia,+PA+19151!3b1!8m2!3d39.9724205!4d-75.2598153!3m6!1s0x89c6c0d889c808ab:0x9b253b79fe9b29e3!8m2!3d39.9729683!4d-75.2599045!9m1!1b1",Cobbs Creek Park,Samuel Rose Recreation Center,7401 LANSDOWNE AVE
142,4650 GERMANTOWN AVE,Loudoun Park,"https://www.google.com/maps/place/Loudoun+Mansion/@40.025695,-75.1628529,562m/data=!3m1!1e3!4m15!1m7!3m6!1s0x89c6b82423d6cf47:0x7e789e43e778a44f!2sLoudoun+Park,+4650+Germantown+Ave,+Philadelphia,+PA+19144!3b1!8m2!3d40.0256793!4d-75.1606944!3m6!1s0x89c6b82423a8694b:0x5e2b01c003ddd7a5!8m2!3d40.0257203!4d-75.1605712!9m1!1b1",Loudoun Park,,4650 GERMANTOWN AVE
144,3580 SCOTTS LN,Harry S McDevitt Playground,"https://www.google.com/maps/place/McDevitt+Recreation+Center/@40.0087514,-75.1870934,568m/data=!3m1!1e3!4m15!1m7!3m6!1s0x89c6b87113a6e3d7:0xe9d169991a17b316!2s3580+Scotts+Ln,+Philadelphia,+PA+19129!3b1!8m2!3d40.0087192!4d-75.1854384!3m6!1s0x89c6b8654cce689f:0x5d3c2cca4aee43a4!8m2!3d40.0089855!4d-75.1876287!9m1!1b1",Harry S McDevitt Playground,Harry S. McDevitt Playground,3580 SCOTTS LN
145,600 WALNUT ST,Washington Square,"https://www.google.com/maps/place/Washington+Square/@39.9470367,-75.1523939,562m/data=!3m1!1e3!4m7!3m6!1s0x89c6c89d25364477:0x5e718fbcd1ea571e!8m2!3d39.9470367!4d-75.1523939!9m1!1b1",Washington Square,Washington Square,600 WALNUT ST
146,5530 B ST,Charles J Ziehler Playground,"https://www.google.com/maps/place/ZIEHLER+PLAY+GROUND/@40.0341796,-75.117752,562m/data=!3m1!1e3!4m7!3m6!1s0x89c6b707fa6509ed:0x39eef4360be2b769!8m2!3d40.0341796!4d-75.117752!9m1!1b1",Charles J Ziehler Playground,Charles J. Ziehler Playground,5530 B ST
147,200 N 06TH ST,Franklin Square,"https://www.google.com/maps/place/Franklin+Square/@39.9556634,-75.1504502,562m/data=!3m1!1e3!4m7!3m6!1s0x89c6c880e78b4fd5:0x3370e3dc26ba8572!8m2!3d39.9556634!4d-75.1504502!9m1!1b1",Franklin Square,Franklin Square,200 N 06TH ST
148,3694 CHESTERFIELD RD,Thomas Mitchell Playground,"https://www.google.com/maps/place/Thomas+Mitchell+Playground/@40.0681953,-74.9916534,561m/data=!3m1!1e3!4m7!3m6!1s0x89c6b342c0337619:0x2ac417810588de8!8m2!3d40.0681953!4d-74.9916534!9m1!1b1",Thomas Mitchell Playground,Thomas Mitchell Playground,3694 CHESTERFIELD RD
149,1006 E HORTTER ST,Charles M Finley Playground,"https://www.google.com/maps/place/Finley+Playground/@40.064697,-75.170351,562m/data=!3m1!1e3!4m7!3m6!1s0x89c6b9e946b33543:0x47f7af5ced32c412!8m2!3d40.064697!4d-75.170351!9m1!1b1",Charles M Finley Playground,Charles M. Finley Playground,1006 E HORTTER ST
150,2250 PENNSYLVANIA AVE,Von Colln Field,"https://www.google.com/maps/place/Von+Colln+Memorial+Field/@39.9641534,-75.1774869,311m/data=!3m1!1e3!4m15!1m7!3m6!1s0x89c6c7ca6a4eab63:0x3e71a8f93db5c999!2s2250+Pennsylvania+Ave,+Philadelphia,+PA+19130!3b1!8m2!3d39.9644879!4d-75.1765844!3m6!1s0x89c6c7e679c3bfa9:0x6f196a232ee55e1c!8m2!3d39.9639369!4d-75.1762532!9m1!1b1",Benjamin Franklin Parkway,,2250 PENNSYLVANIA AVE
151,2100 N HOWARD ST,Norris Square,"https://www.google.com/maps/place/Norris+Square+Park/@39.982684,-75.134686,562m/data=!3m1!1e3!4m7!3m6!1s0x89c6c816fb0e8469:0x3f3e19989fe9d42e!8m2!3d39.982684!4d-75.134686!9m1!1b1",Norris Square,,2100 N HOWARD ST
152,487 TOMLINSON RD,Tomlinson and Gifford Playground,"https://www.google.com/maps/place/Gifford+Playground/@40.1151044,-75.0249714,561m/data=!3m1!1e3!4m7!3m6!1s0x89c6b25b39bc4411:0x3771f0b170b2fcd2!8m2!3d40.1151044!4d-75.0249714!9m1!1b1",Tomlinson and Gifford Playground,Tomlinson and Gifford Playground,487 TOMLINSON RD
153,601 E INDIANA AVE,McPherson Square,"https://www.google.com/maps/place/McPherson+Square/@39.9945614,-75.1191458,562m/data=!3m1!1e3!4m7!3m6!1s0x89c6b7d7f2b70c39:0x9b1775476c78a114!8m2!3d39.9945614!4d-75.1191458!9m1!1b1",McPherson Square,,601 E INDIANA AVE
154,1610 CHELTEN AVE,Morris Estate Cultural Center,"https://www.google.com/maps/place/Morris+Estate+Recreation+Center/@40.0504785,-75.145951,562m/data=!3m1!1e3!4m7!3m6!1s0x89c6b765c8fd1a6f:0xa7ffd6464bb656bf!8m2!3d40.0505144!4d-75.1459428!9m1!1b1",Morris Estate Cultural Center,Morris Estate Cultural Center,1610 CHELTEN AVE
155,3390 D ST,Sergeant John J McVeigh Recreation Center,"https://www.google.com/maps/place/McVeigh+Recreation+Center/@40.0002686,-75.1211991,562m/data=!3m1!1e3!4m7!3m6!1s0x89c6b7da1f60a923:0xf03da091bc2595a2!8m2!3d40.0003211!4d-75.1209248!9m1!1b1",Sergeant John J McVeigh Recreation Center,Sergeant John J. McVeigh Recreation Center,3390 D ST
156,5100 PINE ST,Malcolm X Memorial Park,"https://www.google.com/maps/place/Malcolm+X+Park/@39.9526109,-75.2263291,281m/data=!3m1!1e3!4m15!1m7!3m6!1s0x89c6c6c219c49fed:0x3e8f5d428a93ced1!2s5100+Pine+St,+Philadelphia,+PA+19143!3b1!8m2!3d39.9528253!4d-75.2257772!3m6!1s0x89c6c6c21b2225c7:0xe1c26d41a5b81ef8!8m2!3d39.9526633!4d-75.2254274!9m1!1b1",Malcolm X Memorial Park,Malcolm X Memorial Park,5100 PINE ST
157,1099 E TIOGA ST,Joseph A Scanlon Playground,"https://www.google.com/maps/place/Scanlon+Playground/@40.0013724,-75.1076508,562m/data=!3m1!1e3!4m7!3m6!1s0x89c6b62d4dc68275:0x2809272cc9604a52!8m2!3d40.0013724!4d-75.1076508!9m1!1b1",Joseph A Scanlon Playground,Joseph A. Scanlon Playground,1099 E TIOGA ST
158,650 WATER WORKS DR,Fairmount Water Works Historic Area,"https://www.google.com/maps/place/Fairmount+Water+Works+Trail+%26+Boardwalk/@39.9662669,-75.1860397,529m/data=!3m1!1e3!4m15!1m7!3m6!1s0x89c6c7b405aac5d3:0x6a22ee3688c5daf8!2s650+Waterworks+Dr,+Philadelphia,+PA+19130!3b1!8m2!3d39.9659378!4d-75.1831068!3m6!1s0x89c6c790794b4cd3:0x7ea594cb51049f8d!8m2!3d39.9676323!4d-75.1847515!9m1!1b1",East Fairmount Park,Fairmount Water Works Historic Area,650 WATER WORKS DR
159,2945 WELSH RD,Frank McArdle Memorial Recreation Center,"https://www.google.com/maps/place/Frank+McArdle+Memorial+Recreation+Center/@40.0607968,-75.0263214,562m/data=!3m1!1e3!4m7!3m6!1s0x89c6b388f1282905:0xa450fb92ee824b29!8m2!3d40.0607968!4d-75.0263214!9m1!1b1",Frank McArdle Memorial Recreation Center,Frank McArdle Memorial Recreation Center,2945 WELSH RD
160,1500 E CAYUGA ST,Boniface Piccoli Playground,"https://www.google.com/maps/place/Piccoli+Playground/@40.0123071,-75.0965198,562m/data=!3m1!1e3!4m7!3m6!1s0x89c6b64874000001:0x16513e46c648ac40!8m2!3d40.0123071!4d-75.0965198!9m1!1b1",Boniface Piccoli Playground,Boniface Piccoli Playground,1500 E CAYUGA ST
161,3000 SAINT VINCENT ST,Mayfair Recreation Center,"https://www.google.com/maps/place/Mayfair+Park/@40.039858,-75.0556366,562m/data=!3m1!1e3!4m7!3m6!1s0x89c6b4238298a02f:0x2efba86f76f1b0ec!8m2!3d40.0405238!4d-75.0534486!9m1!1b1",Mayfair Recreation Center,Mayfair Recreation Center,3000 SAINT VINCENT ST
162,501 E JOHNSON ST,Cliveden Park,"https://www.google.com/maps/place/Cliveden+Park/@40.0511822,-75.1779395,562m/data=!3m1!1e3!4m7!3m6!1s0x89c6b9b7fe08480b:0x62100a2a740ff0f1!8m2!3d40.0511822!4d-75.1779395!9m1!1b1",Cliveden Park,Cliveden Park,501 E JOHNSON ST
163,6420 N 2ND ST,Helen G Sturgis Playground,"https://www.google.com/maps/place/Sturgis+Playground/@40.0495116,-75.1230205,562m/data=!3m1!1e3!4m7!3m6!1s0x89c6b716d3fdbc65:0x606961d09020d159!8m2!3d40.0495116!4d-75.1230205!9m1!1b1",Helen G Sturgis Playground,Helen G. Sturgis Playground,6420 N 2ND ST
165,700 W DUNCANNON AVE,John L Barrett Playground,"https://www.google.com/maps/place/Barrett+Playground/@40.0294302,-75.1373829,562m/data=!3m1!1e3!4m7!3m6!1s0x89c6b79948c7fcbb:0x81b86ea67f1eea08!8m2!3d40.0295863!4d-75.135956!9m1!1b1",John L Barrett Playground,John L. Barrett Playground,700 W DUNCANNON AVE
166,6744 REGENT ST,John J McCreesh Sr Playground,"https://www.google.com/maps/place/McCreesh+Playground+and+Skatepark/@39.9262548,-75.2397021,563m/data=!3m1!1e3!4m7!3m6!1s0x89c6c403c8e2ff9b:0x99fa0d3755878c31!8m2!3d39.9262548!4d-75.2397021!9m1!1b1",John J McCreesh Sr Playground,"John J. McCreesh, Sr. Playground",6744 REGENT ST
167,5271 PARKSIDE AVE,Parkside Evans Recreation Center,"https://www.google.com/maps/place/Parkside+Evans+Playground/@39.9819578,-75.2262283,571m/data=!3m1!1e3!4m15!1m7!3m6!1s0x89c6c7161ad10d7d:0xc6726b37b380e99d!2s5271+Parkside+Ave,+Philadelphia,+PA+19131!3b1!8m2!3d39.9815537!4d-75.2240446!3m6!1s0x89c6c73e78c68cbb:0x9b52f83e13213811!8m2!3d39.9823913!4d-75.2266693!9m1!1b1",West Fairmount Park,Parkside Evans Recreation Center,5271 PARKSIDE AVE
171,4300 HELLERMAN ST,Franklin Delano Roosevelt Playground,"https://www.google.com/maps/place/Roosevelt+Playground/@40.0260351,-75.0564275,735m/data=!3m1!1e3!4m15!1m7!3m6!1s0x89c6b42cea0c3cad:0xc45e862b42103539!2s4300+Hellerman+St,+Philadelphia,+PA+19135!3b1!8m2!3d40.0265772!4d-75.0536332!3m6!1s0x89c6b42cb68787df:0x903d6a66b28f11e1!8m2!3d40.0255766!4d-75.0539966!9m1!1b1",Franklin Delano Roosevelt Playground,Franklin Delano Roosevelt Playground,4300 HELLERMAN ST
172,900 W CHEW AVE,A Albert Cherashore Playground,"https://www.google.com/maps/place/Cherashore+Playground/@40.0371356,-75.1357967,562m/data=!3m1!1e3!4m7!3m6!1s0x89c6b775ea6872a5:0x95084d556b4757a1!8m2!3d40.0371356!4d-75.1357967!9m1!1b1",A Albert Cherashore Playground,A. Albert Cherashore Playground,900 W CHEW AVE
174,6532 CALLOWHILL ST,William T Granahan Playground,"https://www.google.com/maps/place/Granahan+Playground+%26+Skatepark/@39.9690503,-75.2499114,562m/data=!3m1!1e3!4m7!3m6!1s0x89c6c86263a6e2f9:0xf7da41bee50e29ee!8m2!3d39.9690503!4d-75.2499114!9m1!1b1",Cobbs Creek Park,William T. Granahan Playground,6532 CALLOWHILL ST
175,6401 ELMWOOD AVE,George Connell Park,"https://www.google.com/maps/place/Connell+Park/@39.9232139,-75.2310022,377m/data=!3m1!1e3!4m15!1m7!3m6!1s0x89c6c41c02cebf1f:0x2bcc561d962b0f96!2s6401+Elmwood+Ave,+Philadelphia,+PA+19142!3b1!8m2!3d39.9233152!4d-75.2305178!3m6!1s0x89c6c41eb7055fc1:0xdf2aef9208f5e258!8m2!3d39.9231865!4d-75.2305861!9m1!1b1",George Connell Park,George Connell Park,6401 ELMWOOD AVE
177,1100 E CHELTEN AVE,Lonnie Young Recreation Center of East Germantown,"https://www.google.com/maps/place/Lonnie+Young+Recreation+Center/@40.0496823,-75.1602373,562m/data=!3m2!1e3!5s0x89c6b9d9ebf59b3b:0x3cbacd3a61b3cf1c!4m7!3m6!1s0x89c6b9d9ebf29a09:0xe3eeab13f1023730!8m2!3d40.0496823!4d-75.1602373!9m1!1b1",Lonnie Young Recreation Center of East Germantown,The Lonnie Young Recreation Center of East Germantown,1100 E CHELTEN AVE
179,12485 ACADEMY RD,Eileen Fitzpatrick Playground,"https://www.google.com/maps/place/FITZPATRICK+RECREATION+CENTER/@40.0954599,-74.9742666,429m/data=!3m1!1e3!4m15!1m7!3m6!1s0x89c6b2d5d7cd60cf:0x2e5fe7ff5492c5b!2s12485+Academy+Rd,+Philadelphia,+PA+19154!3b1!8m2!3d40.0968663!4d-74.9729812!3m6!1s0x89c6b2d4c24dd7e5:0x356895ec4ce07f40!8m2!3d40.0975749!4d-74.9689376!9m1!1b1",Eileen Fitzpatrick Playground,Eileen Fitzpatrick Playground,12485 ACADEMY RD
181,5826 MCMAHON AVE,Waterview Recreation Center,"https://www.google.com/maps/place/Waterview+Recreation+Center/@40.0452401,-75.168449,562m/data=!3m1!1e3!4m7!3m6!1s0x89c6b9cdd6b29985:0x2b2cd34b5bbb5d21!8m2!3d40.0454414!4d-75.1682381!9m1!1b1",Waterview Recreation Center,Waterview Recreation Center,5826 MCMAHON AVE
182,2901 CEDAR ST,Cohocksink Recreation Center,"https://www.google.com/maps/place/Cohocksink+Recreation+Center/@39.9841107,-75.1130335,562m/data=!3m1!1e3!4m7!3m6!1s0x89c6c82dde26bb85:0x9a41b0df3696be21!8m2!3d39.9841787!4d-75.113094!9m1!1b1",Cohocksink Recreation Center,Cohocksink Recreation Center,2901 CEDAR ST
183,3201 MIDVALE AVE,McMichael Park,"https://www.google.com/maps/place/McMichael+Park/@40.0184814,-75.1870044,562m/data=!3m1!1e3!4m7!3m6!1s0x89c6b86f4c16fd01:0x396970e33ca0abdd!8m2!3d40.0184814!4d-75.1870044!9m1!1b1",McMichael Park,,3201 MIDVALE AVE
186,3455 KENSINGTON AVE,Harrowgate Park,"https://www.google.com/maps/place/Harrowgate+Park/@39.9992175,-75.1063689,562m/data=!3m1!1e3!4m7!3m6!1s0x89c6b62cde27c131:0xeb2ae46f525fd1dc!8m2!3d39.9992175!4d-75.1063689!9m1!1b1",Harrowgate Park,,3455 KENSINGTON AVE
187,4740 WOODLAND AVE,48th and Woodland Playground,"https://www.google.com/maps/place/48th+%26+Woodland+Playground/@39.9418538,-75.2102661,563m/data=!3m1!1e3!4m7!3m6!1s0x89c6c68c523774af:0x2785c550059a5f99!8m2!3d39.9418538!4d-75.2102661!9m1!1b1",48th and Woodland Playground,"
",4740 WOODLAND AVE
189,1401 N 06TH ST,Narcissa S Cruz Recreation Center,"https://www.google.com/maps/place/Cruz+Playground/@39.9728597,-75.1467121,337m/data=!3m1!1e3!4m15!1m7!3m6!1s0x89c6c872346a85e3:0x1cd3120260455493!2s1401+N+6th+St,+Philadelphia,+PA+19122!3b1!8m2!3d39.9729292!4d-75.1454627!3m6!1s0x89c6c86bca21a4c7:0x332f6f66b7b780db!8m2!3d39.9735232!4d-75.1449951!9m1!1b1",Narcissa S Cruz Recreation Center,Narcissa S. Cruz Recreation Center,1401 N 06TH ST
190,4510 RHAWN ST,Holmesburg Recreation Center,"https://www.google.com/maps/place/Holmesburg+Recreation+Center/@40.0364167,-75.0264223,547m/data=!3m1!1e3!4m7!3m6!1s0x89c6b44354bdf1b7:0xf2e819a273cb83da!8m2!3d40.0364167!4d-75.0264223!9m1!1b1",Holmesburg Recreation Center,Holmesburg Recreation Center,4510 RHAWN ST
191,5202 LEVICK ST,Lardners Point Park,"https://www.google.com/maps/place/Lardner's+Point+Park/@40.0147478,-75.0459981,547m/data=!3m1!1e3!4m7!3m6!1s0x89c6b5c57fdc200f:0x203a43aada722253!8m2!3d40.0147478!4d-75.0459981!9m1!1b1",Lardners Point Park,,5202 LEVICK ST
192,2600 ARAMINGO AVE,Frederick Cione Playground,"https://www.google.com/maps/place/Aramingo+Square/@39.9811441,-75.1184531,543m/data=!3m1!1e3!4m15!1m7!3m6!1s0x89c6c83042d7d52d:0x275b8ec9cbcda1bd!2sCione+Playground,+2600+Aramingo+Ave,+Philadelphia,+PA+19125!3b1!8m2!3d39.9815488!4d-75.1178915!3m6!1s0x89c6c8308e08577f:0x73644fbb48457c9!8m2!3d39.9804753!4d-75.1182336!9m1!1b1",Frederick Cione Playground,Frederick Cione Playground,2600 ARAMINGO AVE
193,305 SLOCUM ST,Pleasant Playground,"https://www.google.com/maps/place/Pleasant+Playground/@40.0575177,-75.1820801,562m/data=!3m1!1e3!4m7!3m6!1s0x89c6b9bec98ea4c9:0x214311130e08c816!8m2!3d40.0575177!4d-75.1820801!9m1!1b1",Pleasant Playground,Pleasant Playground,305 SLOCUM ST
194,2626 W JEFFERSON ST,Athletic Recreation Center,"https://www.google.com/maps/place/Athletic+Recreation+Center/@39.9781612,-75.1814554,776m/data=!3m1!1e3!4m15!1m7!3m6!1s0x89c6c7bf7bfcbc5f:0x87f3f0e6b276413!2s2626+W+Jefferson+St,+Philadelphia,+PA+19121!3b1!8m2!3d39.9783925!4d-75.1785095!3m6!1s0x89c6c7bf613cda95:0x80424790dcaa5432!8m2!3d39.9776731!4d-75.1781713!9m1!1b1",Athletic Recreation Center,Athletic Recreation Center,2626 W JEFFERSON ST
195,4800 WAYNE AVE,Happy Hollow Recreation Center,"https://www.google.com/maps/place/Happy+Hollow+Recreation+Center/@40.0242448,-75.1659795,562m/data=!3m1!1e3!4m7!3m6!1s0x89c6b83cb4382855:0x2a3d641313497cb6!8m2!3d40.0243042!4d-75.1659252!9m1!1b1",Happy Hollow Recreation Center,Happy Hollow Recreation Center,4800 WAYNE AVE
196,8725 VERREE RD,CCA Baldi School Playground,"https://www.google.com/maps/place/Baldi+Playground/@40.0916958,-75.0526199,561m/data=!3m1!1e3!4m14!1m6!3m5!1s0x89c6b3daf70f2ac7:0xd15e810fa3afb63d!2sC.C.A.+Baldi+Middle+School!8m2!3d40.0916958!4d-75.0526199!3m6!1s0x0:0x8689ffbdc84ca5fa!8m2!3d40.092014!4d-75.05062!9m1!1b1",CCA Baldi School Playground,,8725 VERREE RD
198,3201 RICHMOND ST,Reverend M Monkiewicz Recreation Center,"https://www.google.com/maps/place/Monkiewicz+Playground/@39.9830128,-75.100807,562m/data=!3m1!1e3!4m7!3m6!1s0x89c6c9d18e52815b:0x3c2c6de3ece805ca!8m2!3d39.9830128!4d-75.100807!9m1!1b1",Reverend M Monkiewicz Recreation Center,Reverend M. Monkiewicz Recreation Center,3201 RICHMOND ST
199,1951 N 60TH ST,Ernest L Tustin Recreation Center,"https://www.google.com/maps/place/Tustin+Playground/@39.9817619,-75.2408829,562m/data=!3m1!1e3!4m7!3m6!1s0x89c6c731aba61d01:0xd6e47bbe1ed134fb!8m2!3d39.9817619!4d-75.2408829!9m1!1b1",Ernest L Tustin Recreation Center,Ernest L. Tustin Recreation Center,1951 N 60TH ST
200,1300 S 23RD ST,Wharton Square,"https://www.google.com/maps/place/Wharton+Square+Playground/@39.9360454,-75.1837832,563m/data=!3m1!1e3!4m7!3m6!1s0x89c6c66ea7ecf44b:0xb3aef635303a7e36!8m2!3d39.9360454!4d-75.1837832!9m1!1b1",Wharton Square,Wharton Square,1300 S 23RD ST
201,500 WOLF ST,Mifflin Square,"https://www.google.com/maps/place/Mifflin+Square+Park/@39.9194768,-75.1565192,563m/data=!3m1!1e3!4m7!3m6!1s0x89c6c6004251bbf9:0x80874f569470f16a!8m2!3d39.9194768!4d-75.1565192!9m1!1b1",Mifflin Square,,500 WOLF ST
202,2109 W CHEW AVE,Belfield Recreation Center,"https://www.google.com/maps/place/Belfield+Recreation+Center/@40.0414631,-75.156282,562m/data=!3m1!1e3!4m7!3m6!1s0x89c6b9d5754812c3:0xed0d187c38c315d6!8m2!3d40.0414631!4d-75.156282!9m1!1b1",Belfield Recreation Center,,2109 W CHEW AVE
203,4600 LEIPER ST,Overington Park,"https://www.google.com/maps/place/Overington+Park/@40.0169993,-75.0882804,562m/data=!3m1!1e3!4m7!3m6!1s0x89c6b643a650dc47:0xba56b623df951389!8m2!3d40.0169993!4d-75.0882804!9m1!1b1",Overington Park,,4600 LEIPER ST
204,1200 WHARTON ST,Columbus Square,"https://www.google.com/maps/place/Columbus+Park/@39.9324624,-75.1666248,563m/data=!3m1!1e3!4m14!1m6!3m5!1s0x89c6c789923788a5:0x6d7b966509bea349!2sColumbus+Square+Dog+Park!8m2!3d39.9328162!4d-75.1642108!3m6!1s0x89c6c7c1959ae6fd:0x90c47c5bcf4da5b7!8m2!3d39.9331537!4d-75.1648307!9m1!1b1",Columbus Square,Columbus Square,1200 WHARTON ST
205,900 FEDERAL ST,Dr Nicola Capitolo Playground,"https://www.google.com/maps/place/Capitolo+Playground/@39.93379,-75.159799,563m/data=!3m1!1e3!4m7!3m6!1s0x89c6c6194cea361f:0x2d2a14a6d3470179!8m2!3d39.93379!4d-75.159799!9m1!1b1",Dr Nicola Capitolo Playground,Dr. Nicola Capitolo Playground,900 FEDERAL ST
206,2600 MORRIS ST,George A Vare Recreation Center,"https://www.google.com/maps/place/Vare+Recreation+Center/@39.9315856,-75.189118,563m/data=!3m1!1e3!4m7!3m6!1s0x89c6c6700b0dab79:0xdb6dfb6fa0ff50ab!8m2!3d39.9315856!4d-75.189118!9m1!1b1",George A Vare Recreation Center,George A. Vare Recreation Center,2600 MORRIS ST
207,7001 GERMANTOWN AVE,Mount Airy Playground,"https://www.google.com/maps/place/Mount+Airy+Playground/@40.0575346,-75.1880758,562m/data=!3m1!1e3!4m7!3m6!1s0x89c6b9bb60aeaaab:0xa7cbb3600c3fc2a6!8m2!3d40.0575415!4d-75.1881345!9m1!1b1",Mount Airy Playground,Mount Airy Playground,7001 GERMANTOWN AVE
208,201 FOUNTAIN ST,Hillside Recreation Center,"https://www.google.com/maps/place/Hillside+Recreation+Center/@40.0335758,-75.2294922,562m/data=!3m1!1e3!4m7!3m6!1s0x89c6b8c3bedf4591:0x167470f3a4ab5d04!8m2!3d40.0335758!4d-75.2294922!9m1!1b1",Hillside Recreation Center,Hillside Recreation Center,201 FOUNTAIN ST
209,2151 BENJAMIN FRANKLIN PKY,Rodin Museum,"https://www.google.com/maps/place/Rodin+Museum/@39.9619232,-75.1739579,281m/data=!3m1!1e3!4m7!3m6!1s0x89c6c5e645a890ff:0xd4723ae3b94e5c7a!8m2!3d39.9619232!4d-75.1739579!9m1!1b1",Benjamin Franklin Parkway,Rodin Museum,2151 BENJAMIN FRANKLIN PKY
210,2101 SHUNK ST,Stephen Girard Park,"https://www.google.com/maps/place/Stephen+Girard+Park/@39.9203218,-75.1834465,563m/data=!3m1!1e3!4m7!3m6!1s0x89c6c5df482dea57:0xcbe31029503d1fc2!8m2!3d39.9203218!4d-75.1834465!9m1!1b1",Stephen Girard Park,,2101 SHUNK ST
211,2838 S 18TH ST,Commodore John Barry Playground,"https://www.google.com/maps/place/BARRY+Playground/@39.915457,-75.1809463,563m/data=!3m1!1e3!4m15!1m7!3m6!1s0x89c6c5ddfeec016f:0xf4233437a3fbb6f3!2s2838+S+18th+St,+Philadelphia,+PA+19145!3b1!8m2!3d39.9158438!4d-75.1784894!3m6!1s0x89c6c5ddf017f045:0x3b099608c4aa7b88!8m2!3d39.9152488!4d-75.1785669!9m1!1b1",Commodore John Barry Playground,Commodore John Barry Playground,2838 S 18TH ST
212,4301 PRINCETON AVE,Senator William Vincent Mullin Playground,"https://www.google.com/maps/place/Mullin+Playground/@40.0319662,-75.0429753,423m/data=!3m1!1e3!4m15!1m7!3m6!1s0x89c6b4370ad43b63:0x9f6e4de690aabaaa!2s4301+Princeton+Ave,+Philadelphia,+PA+19135!3b1!8m2!3d40.032264!4d-75.0408379!3m6!1s0x89c6b4373925f539:0x41dbfcf67463c276!8m2!3d40.0319557!4d-75.0419692!9m1!1b1",Senator William Vincent Mullin Playground,Senator William Vincent Mullin Playground,4301 PRINCETON AVE
213,5200 N PENN ST,Joseph C McIlvain Playground,"https://www.google.com/maps/place/Mc+Ilvain+Playground/@40.0236623,-75.0799931,562m/data=!3m1!1e3!4m7!3m6!1s0x89c6b666b53e446f:0xbeca550b15ca8ba6!8m2!3d40.0236623!4d-75.0799931!9m1!1b1",Joseph C McIlvain Playground,Joseph C. McIlvain Playground,5200 N PENN ST
214,1591 N 10TH ST,Marie Dendy Recreation Center,"https://www.google.com/maps/place/Dendy+Recreation+Center/@39.9756629,-75.1510722,562m/data=!3m1!1e3!4m7!3m6!1s0x89c6c874fc385f4d:0xd7e4632517671f0b!8m2!3d39.9756629!4d-75.1510722!9m1!1b1",Marie Dendy Recreation Center,Marie Dendy Recreation Center,1591 N 10TH ST
215,1826 BLAIR ST,Dan Shissler Recreation Center,"https://www.google.com/maps/place/Shissler+Recreation+Center/@39.9775278,-75.1326,562m/data=!3m1!1e3!4m7!3m6!1s0x89c6c815771ba477:0x563fdce6c247afd4!8m2!3d39.9775127!4d-75.132479!9m1!1b1",Dan Shissler Recreation Center,Dan Shissler Recreation Center,1826 BLAIR ST
216,400 WASHINGTON AVE,Solomon Sacks Playground,"https://www.google.com/maps/place/Sacks+Playground/@39.9336435,-75.153391,563m/data=!3m1!1e3!4m15!1m7!3m6!1s0x89c6c8a1227e9f7f:0xf6e6be7e043f53b2!2s400+Washington+Ave,+Philadelphia,+PA+19147!3b1!8m2!3d39.9337587!4d-75.151095!3m6!1s0x89c6c8a0e06a5c5b:0xf90c5355f7009063!8m2!3d39.9339312!4d-75.1518487!9m1!1b1",Solomon Sacks Playground,Solomon Sacks Playground,400 WASHINGTON AVE
217,5726 TORRESDALE AVE,Victor J Moss Memorial Field,"https://www.google.com/maps/place/Moss+Playground/@40.0161276,-75.0650023,562m/data=!3m1!1e3!4m15!1m7!3m6!1s0x89c6b6778cc6f57f:0x74892026e4e045d6!2s5726+Torresdale+Ave,+Philadelphia,+PA+19135!3b1!8m2!3d40.0163248!4d-75.062363!3m6!1s0x89c6b6778816df79:0xc30324e9acc06f30!8m2!3d40.0163576!4d-75.0632574!9m1!1b1",Victor J Moss Memorial Field,Victor J. Moss Memorial Field,5726 TORRESDALE AVE
218,108 E JOHNSON ST,Daniel E Rumph II Recreation Center,"https://www.google.com/maps/place/Mallery+Playground/@40.0482219,-75.1795086,174m/data=!3m1!1e3!4m15!1m7!3m6!1s0x89c6b9b6441e9731:0xba50f397ea5c2111!2s108+E+Johnson+St,+Philadelphia,+PA+19144!3b1!8m2!3d40.0481168!4d-75.1792731!3m6!1s0x89c6b9b63fa54983:0xbdb3542f65a314d9!8m2!3d40.0480124!4d-75.1792126!9m1!1b1",Daniel E Rumph II Recreation Center,Daniel E. Rumph II Recreation Center,108 E JOHNSON ST
219,8545 PROVIDENT ST,Dorothy Emanuel Recreation Center,"https://www.google.com/maps/place/Dorothy+Emanuel+Playground/@40.0810227,-75.1776338,408m/data=!3m1!1e3!4m15!1m7!3m6!1s0x89c6b9f5642ac555:0x62a1e049593c6432!2s8545+Provident+Rd,+Philadelphia,+PA+19150!3b1!8m2!3d40.0810257!4d-75.1757828!3m6!1s0x89c6ba1fd15f6ead:0xed2eaaa210b8a1f9!8m2!3d40.0814752!4d-75.175879!9m1!1b1",Dorothy Emanuel Recreation Center,Dorothy Emanuel Recreation Center,8545 PROVIDENT ST
220,1822 WYLIE ST,Francisville Recreation Center,"https://www.google.com/maps/place/Francisville+Playground/@39.9689362,-75.1691439,562m/data=!3m1!1e3!4m15!1m7!3m6!1s0x89c6c7cff95c581b:0x469f4ff33efd6e30!2s1822+Wylie+St,+Philadelphia,+PA+19130!3b1!8m2!3d39.9691418!4d-75.1667514!3m6!1s0x89c6c7cfc216b78f:0x499b30a306e6ceb3!8m2!3d39.9684456!4d-75.1672449!9m1!1b1",Francisville Recreation Center,Francisville Recreation Center,1822 WYLIE ST
223,1381 RUAN ST,Joseph Deni Recreation Center,"https://www.google.com/maps/place/Deni+Playground/@40.0124226,-75.0932163,248m/data=!3m1!1e3!4m15!1m7!3m6!1s0x89c6b6471c6a72f1:0x33b183842da28449!2s1381+Ruan+St,+Philadelphia,+PA+19124!3b1!8m2!3d40.012451!4d-75.092248!3m6!1s0x89c6b646e4ce8d23:0x587bb125d01dc690!8m2!3d40.0123605!4d-75.0921403!9m1!1b1",Joseph Deni Recreation Center,Joseph Deni Recreation Center,1381 RUAN ST
224,3025 N 27TH ST,James Allen Shuler Playground,"https://www.google.com/maps/place/James+Allen+Shuler+Playground/@40.0016218,-75.1768005,562m/data=!3m1!1e3!4m15!1m7!3m6!1s0x89c6b80a6454b4d3:0xea21f68cdc122f06!2s3025+N+27th+St,+Philadelphia,+PA+19132!3b1!8m2!3d40.0017204!4d-75.1741827!3m6!1s0x89c6b80a7b9660c7:0x8415bbf255312a2a!8m2!3d40.0023658!4d-75.1750177!9m1!1b1",James Allen Shuler Playground,James Allen Shuler Playground,3025 N 27TH ST
225,776 S 17TH ST,Marian Anderson Recreation Center,"https://www.google.com/maps/place/Marian+Anderson+Recreation+Center/@39.9417929,-75.1726108,265m/data=!3m1!1e3!4m15!1m7!3m6!1s0x89c6c63dc63c3c07:0x838ea4730d00393f!2s776+S+17th+St,+Philadelphia,+PA+19146!3b1!8m2!3d39.9415919!4d-75.1711395!3m6!1s0x89c6c63dda175ddf:0xd032a28ae5d17e43!8m2!3d39.9418979!4d-75.1714909!9m1!1b1",Marian Anderson Recreation Center,Marian Anderson Recreation Center,776 S 17TH ST
227,4500 DISSTON ST,Disston Recreation Center,"https://www.google.com/maps/place/Disston+Recreation+Center/@40.0286475,-75.0457113,562m/data=!3m1!1e3!4m15!1m7!3m6!1s0x89c6b433f880c2ab:0xae265bbd8e17b2c7!2s4500+Disston+St,+Philadelphia,+PA+19135!3b1!8m2!3d40.0286968!4d-75.0438338!3m6!1s0x89c6b5cb70758399:0x575f59ae950349f5!8m2!3d40.0283498!4d-75.044335!9m1!1b1",Disston Recreation Center,Disston Recreation Center,4500 DISSTON ST
228,283 E WYOMING AVE,Feltonville Recreation Center,"https://www.google.com/maps/place/Feltonville+Recreation+Center/@40.0212783,-75.1228716,562m/data=!3m1!1e3!4m15!1m7!3m6!1s0x89c6b7ba5dff3b11:0xae04c79e58bf5850!2s283+E+Wyoming+Ave,+Philadelphia,+PA+19120!3b1!8m2!3d40.0215741!4d-75.1204254!3m6!1s0x89c6b7bda8845475:0x79f483c8d801addb!8m2!3d40.0213875!4d-75.1212826!9m1!1b1",Feltonville Recreation Center,Feltonville Recreation Center,283 E WYOMING AVE
229,700 S 09TH ST,Walter Palumbo Recreation Center,"https://www.google.com/maps/place/Palumbo+Recreation+Center/@39.9407756,-75.160221,396m/data=!3m1!1e3!4m7!3m6!1s0x89c6c621058df2cd:0x7253fc15cda36a7b!8m2!3d39.9410655!4d-75.1587915!9m1!1b1",Walter Palumbo Recreation Center,Walter Palumbo Recreation Center,700 S 09TH ST
230,728 S 55TH ST,Albert W Christy Sr Recreation Center,"https://www.google.com/maps/place/Christy+Rec+Center/@39.9486647,-75.2344149,562m/data=!3m1!1e3!4m7!3m6!1s0x89c6c6c78b633519:0x4fed01114768db8b!8m2!3d39.9486647!4d-75.2344149!9m1!1b1",Albert W Christy Sr Recreation Center,"Albert W. Christy, Sr. Recreation Center",728 S 55TH ST
231,300 WASHINGTON AVE,Jefferson Square,"https://www.google.com/maps/place/Jefferson+Square/@39.9335664,-75.1501338,563m/data=!3m1!1e3!4m7!3m6!1s0x89c6c8a16aad7d93:0x25b51fe689e9c73d!8m2!3d39.9335664!4d-75.1501338!9m1!1b1",Jefferson Square,Jefferson Square,300 WASHINGTON AVE
234,2500 S 77TH ST,William A Cibotti Recreation Center,"https://www.google.com/maps/place/William+A+Cibotti+Recreation/@39.9084542,-75.2488454,253m/data=!3m1!1e3!4m15!1m7!3m6!1s0x89c6c38a9799cc29:0xdb002e37ea585a92!2s2500+S+77th+St,+Philadelphia,+PA+19153!3b1!8m2!3d39.9085988!4d-75.2487137!3m6!1s0x89c6b9fcbf93b95f:0x206f203f6399ae7a!8m2!3d39.908278!4d-75.2483774!9m1!1b1",William A Cibotti Recreation Center,William A. Cibotti Recreation Center,2500 S 77TH ST
235,1400 S 32ND ST,Jacob Stinger Park,"https://www.google.com/maps/place/Stinger+Square+Playground/@39.9362831,-75.1977424,187m/data=!3m1!1e3!4m15!1m7!3m6!1s0x89c6c663a835b567:0x3e1929cfaa64d019!2s1400+S+32nd+St,+Philadelphia,+PA+19146!3b1!8m2!3d39.9361159!4d-75.1977472!3m6!1s0x89c6c6630e6a180d:0xa904709f7cb064ed!8m2!3d39.9364985!4d-75.197356!9m1!1b1",Jacob Stinger Park,Jacob Stinger Park,1400 S 32ND ST
236,999 ARROTT ST,Northwood Park,"https://www.google.com/maps/place/Simpson+Recreation+Center/@40.0220613,-75.0947636,434m/data=!3m1!1e3!4m15!1m7!3m6!1s0x89c6b65ba5feb585:0x1c2f12f4c178a425!2s999+Arrott+St,+Philadelphia,+PA+19124!3b1!8m2!3d40.02309!4d-75.092488!3m6!1s0x89c6b65b261103cb:0x8979eff9475ad17d!8m2!3d40.0219207!4d-75.0930702!9m1!1b1",Northwood Park,,999 ARROTT ST
238,9201 N DELAWARE AVE,Pleasant Hill Park,"https://www.google.com/maps/place/Pleasant+Hill+Park/@40.0425693,-74.9928372,562m/data=!3m1!1e3!4m7!3m6!1s0x89c6b49673a900d7:0x2f04e6019276d348!8m2!3d40.0425693!4d-74.9928372!9m1!1b1",Pleasant Hill Park,,9201 N DELAWARE AVE
239,3645 AMBER ST,Robert T Heitzman Recreation Center,"https://www.google.com/maps/place/Heitzman+Recreation+Center/@40.0425693,-74.9928372,562m/data=!3m1!1e3!4m7!3m6!1s0x89c6b62f1a99cf4d:0x1c90169f3d55ae06!8m2!3d39.9976671!4d-75.0985271!9m1!1b1",Robert T Heitzman Recreation Center,Robert T. Heitzman Recreation Center,3645 AMBER ST
240,2649 N LAWRENCE ST,Fairhill Square,"https://www.google.com/maps/place/Fairhill+Square+Park/@39.991074,-75.1386966,562m/data=!3m1!1e3!4m7!3m6!1s0x89c6c9afb16c66d3:0x97d690585dbe062c!8m2!3d39.991074!4d-75.1386966!9m1!1b1",Fairhill Square,,2649 N LAWRENCE ST
241,4971 BAYNTON ST,Wister Playground,"https://www.google.com/maps/place/Wister+Playground/@40.0326134,-75.1603674,562m/data=!3m1!1e3!4m7!3m6!1s0x89c6b82ed1ebf679:0x10c15a54c3662ba!8m2!3d40.0326134!4d-75.1603674!9m1!1b1",Wister Playground,Wister Playground,4971 BAYNTON ST
242,1800 WASHINGTON AVE,Charles H Chew Jr Playground,"https://www.google.com/maps/place/Chew+Playground/@39.93828,-75.1738727,563m/data=!3m1!1e3!4m7!3m6!1s0x89c6c615b22c6491:0x9d0101aaec86bd41!8m2!3d39.93828!4d-75.1738727!9m1!1b1",Charles H Chew Jr Playground,"Charles H. Chew, Jr. Playground",1800 WASHINGTON AVE
245,2525 E ALLEGHENY AVE,Campbell Square,"https://www.google.com/maps/place/Campbell+Square/@39.9863635,-75.1032715,562m/data=!3m1!1e3!4m7!3m6!1s0x89c6c9d3f4a8a41f:0x66cf7463cd318878!8m2!3d39.9863635!4d-75.1032715!9m1!1b1",Campbell Square,Campbell Square,2525 E ALLEGHENY AVE
246,4728 BROWN ST,Mill Creek Playground and Recreation Center,"https://www.google.com/maps/place/Mill+Creek+Playground/@39.9652154,-75.2169148,281m/data=!3m1!1e3!4m15!1m7!3m6!1s0x89c6c71d81629f89:0x3687ca831720a572!2s4728+Brown+St,+Philadelphia,+PA+19139!3b1!8m2!3d39.9661483!4d-75.2158791!3m6!1s0x89c6c71d7bd84b67:0xb9bab480bec6f880!8m2!3d39.9662059!4d-75.2155892!9m1!1b1",Mill Creek Playground and Recreation Center,Mill Creek Playground and Recreation Center,4728 BROWN ST
247,88 E HAINES ST,Morton Playground,"https://www.google.com/maps/place/Morton+Playground/@40.0400639,-75.1743686,281m/data=!3m1!1e3!4m7!3m6!1s0x89c6b834d15993e3:0xfce3970b5d786c26!8m2!3d40.0400639!4d-75.1743686!9m1!1b1",Morton Playground,,88 E HAINES ST
248,3918 CONSHOHOCKEN AVE,Woodside Park,"https://www.google.com/maps/place/Woodside+Park/@40.0023928,-75.2087162,562m/data=!3m1!1e3!4m7!3m6!1s0x89c6c77c37e64127:0x7152470138933638!8m2!3d40.0023928!4d-75.2087162!9m1!1b1",Woodside Park,Woodside Park,3918 CONSHOHOCKEN AVE
249,736 N 36TH ST,Miles Mack Playground,"https://www.google.com/maps/place/Miles+Mack+Playground/@39.9675138,-75.1957582,562m/data=!3m1!1e3!4m7!3m6!1s0x89c6c7ac0abe6055:0x666a7a3a95b7796a!8m2!3d39.9675138!4d-75.1957582!9m1!1b1",Miles Mack Playground,Miles Mack Playground,736 N 36TH ST
250,5425 WISSAHICKON AVE,Cloverly Park,"https://www.google.com/maps/place/Cloverly+Park/@40.0256978,-75.1809858,562m/data=!3m1!1e3!4m7!3m6!1s0x89c6b84120793285:0xa0a20f97d9ac0346!8m2!3d40.0256978!4d-75.1809858!9m1!1b1",Cloverly Park,Cloverly Park,5425 WISSAHICKON AVE
251,1800 WALLACE ST,Roberto Clemente Playground,"https://www.google.com/maps/place/Roberto+Clemente+Park/@39.9656867,-75.1680226,562m/data=!3m1!1e3!4m7!3m6!1s0x89c6c7ce0c738c31:0x40b2e77be95307b7!8m2!3d39.9656867!4d-75.1680226!9m1!1b1",Roberto Clemente Playground,Roberto Clemente Playground,1800 WALLACE ST
253,429 N 19TH ST,Matthias Baldwin Park,"https://www.google.com/maps/place/Matthias+Baldwin+Park/@39.961667,-75.1689481,562m/data=!3m1!1e3!4m7!3m6!1s0x89c6c7cd1dc78a6d:0xd45c82e975348cd4!8m2!3d39.961667!4d-75.1689481!9m1!1b1",Matthias Baldwin Park,Matthias Baldwin Park,429 N 19TH ST
254,5300 MEDIA ST,Conestoga Community Playground,"https://www.google.com/maps/place/Conestoga+Park/@39.9752696,-75.2295016,562m/data=!3m1!1e3!4m15!1m7!3m6!1s0x89c6c7230f20f1fd:0x97988424803676ef!2s5300+Media+St,+Philadelphia,+PA+19131!3b1!8m2!3d39.9756149!4d-75.2279781!3m6!1s0x89c6c723045fda05:0xac61f2a23d3b3de9!8m2!3d39.9752252!4d-75.2273043!9m1!1b1",Conestoga Community Playground,Conestoga Community Playground,5300 MEDIA ST
256,3539 GAUL ST,Bernard Samuel Playground,"https://www.google.com/maps/place/Samuels+Playground/@39.990652,-75.0991824,562m/data=!3m1!1e3!4m15!1m7!3m6!1s0x89c6b6281b9efefb:0x22e7d7354916ffa2!2s3539+Gaul+St,+Philadelphia,+PA+19134!3b1!8m2!3d39.9911123!4d-75.0970795!3m6!1s0x89c6c9d7e394b67d:0xdba54956d148c9a4!8m2!3d39.9906199!4d-75.0974322!9m1!1b1",Bernard Samuel Playground,Bernard Samuel Playground,3539 GAUL ST
257,4805 HELLERMAN ST,Frank JG Dorsey Memorial Playground,"https://www.google.com/maps/place/Dorsey+Playground/@40.0211987,-75.0493829,231m/data=!3m1!1e3!4m15!1m7!3m6!1s0x89c6b5cd8ef2cf73:0x6ed236dc0b198c5a!2s4805+Hellerman+St,+Philadelphia,+PA+19135!3b1!8m2!3d40.0213238!4d-75.049033!3m6!1s0x89c6b5cd88a4aa31:0x8511e999148b9e63!8m2!3d40.0215225!4d-75.0486679!9m1!1b1",Frank JG Dorsey Memorial Playground,Frank J.G. Dorsey Memorial Playground,4805 HELLERMAN ST
258,1501 JOHN F KENNEDY BLVD,John F Kennedy Plaza (LOVE Park),"https://www.google.com/maps/place/Love+Park/@39.9531038,-75.1676172,562m/data=!3m1!1e3!4m15!1m7!3m6!1s0x89c6c62e12295685:0x1244dde71a8c3603!2s1501+John+F+Kennedy+Blvd,+Philadelphia,+PA+19102!3b1!8m2!3d39.9534657!4d-75.1656967!3m6!1s0x89c6c62e06582793:0x39e3b31694e55907!8m2!3d39.954279!4d-75.1656517!9m1!1b1",Benjamin Franklin Parkway,John F. Kennedy Plaza (LOVE Park),1501 JOHN F KENNEDY BLVD
259,2900 N 12TH ST,12th and Cambria Playground,"https://www.google.com/maps/place/12th+%26+Cambria+Recreation+Center/@39.9967786,-75.1508327,257m/data=!3m1!1e3!4m15!1m7!3m6!1s0x89c6c801ea8730fb:0x266f4f99d28c9102!2s2900+N+12th+St,+Philadelphia,+PA+19133!3b1!8m2!3d39.9968259!4d-75.1502906!3m6!1s0x89c6c801f0df98c5:0x7920d6b6f3435180!8m2!3d39.9967697!4d-75.149248!9m1!1b1",12th and Cambria Playground,,2900 N 12TH ST
260,606 LOMBARD ST,Starr Garden Playground,"https://www.google.com/maps/place/Starr+Garden+Playground/@39.9427864,-75.1523597,563m/data=!3m1!1e3!4m7!3m6!1s0x89c6c89dd12e9253:0xc11a769d8dec318f!8m2!3d39.9428886!4d-75.1523379!9m1!1b1",Starr Garden Playground,Starr Garden Playground,606 LOMBARD ST
262,2201 S 16TH ST,Thomas I Guerin Recreation Center,"https://www.google.com/maps/place/Guerin+Recreation+Center/@39.9230556,-75.1727778,281m/data=!3m1!1e3!4m7!3m6!1s0x89c6c60bc602801b:0x61b64aefd4e86f8a!8m2!3d39.9230556!4d-75.1727778!9m1!1b1",Thomas I Guerin Recreation Center,Thomas I. Guerin Recreation Center,2201 S 16TH ST
263,5475 N BROAD ST,Clarkson Park,"https://www.google.com/maps/place/Clarkson+Park/@40.0358559,-75.1450893,562m/data=!3m1!1e3!4m7!3m6!1s0x89c6b76dca41bdab:0x337183110a367265!8m2!3d40.0358559!4d-75.1450893!9m1!1b1",Clarkson Park,,5475 N BROAD ST
264,109 SPRUCE ST,Michael Foglietta Plaza,"https://www.google.com/maps/place/Philadelphia+Korean+War+Memorial+Park/@39.9448333,-75.1431894,136m/data=!3m1!1e3!4m15!1m7!3m6!1s0x89c6c89a9d024d25:0xb3f92610dc643da7!2sFoglietta+Plaza,+Philadelphia,+PA+19106!3b1!8m2!3d39.9447825!4d-75.1430456!3m6!1s0x89c6c89a9d02267d:0xa4e0c22457d4fbca!8m2!3d39.94499!4d-75.1434371!9m1!1b1",I-95 Park,Michael Foglietta Plaza,109 SPRUCE ST
266,4300 SILVERWOOD ST,Pretzel Park,"https://www.google.com/maps/place/Pretzel+Park/@40.0255841,-75.221105,562m/data=!3m1!1e3!4m7!3m6!1s0x89c6b894e71b0f01:0xf1f5e0e1c5e79fdc!8m2!3d40.0255841!4d-75.221105!9m1!1b1",Pretzel Park,Pretzel Park,4300 SILVERWOOD ST
267,1700 S BROAD ST,A Giuseppe DiSilvestro Playground,"https://www.google.com/maps/place/Di+Silvestro+Playground/@39.929039,-75.1707076,272m/data=!3m1!1e3!4m15!1m7!3m6!1s0x89c6c60fd2a3a1cd:0x4c3fb5a2fc9ea535!2s1700+S+Broad+St,+Philadelphia,+PA+19145!3b1!8m2!3d39.9291433!4d-75.1690827!3m6!1s0x89c6c60e3d310413:0x4d1482ca89c1c29b!8m2!3d39.9291407!4d-75.1700425!9m1!1b1",A Giuseppe DiSilvestro Playground,A. Giuseppe DiSilvestro Playground,1700 S BROAD ST
268,1101 W SUSQUEHANNA AVE,Penrose Memorial Playground,"https://www.google.com/maps/place/Penrose+Recreation+Center/@39.9860484,-75.1517747,121m/data=!3m1!1e3!4m15!1m7!3m6!1s0x89c6c80859fdd365:0x1b15063e345db09!2s1101+W+Susquehanna+Ave,+Philadelphia,+PA+19122!3b1!8m2!3d39.9860178!4d-75.1519387!3m6!1s0x89c6c817ca1eb611:0x521a52d7ec54d719!8m2!3d39.98595!4d-75.1518936!9m1!1b1",Penrose Memorial Playground,Penrose Memorial Playground,1101 W SUSQUEHANNA AVE
269,1020 LOMBARD ST,Charles Seger Park,"https://www.google.com/maps/place/Seger+Park/@39.9437871,-75.1590478,563m/data=!3m1!1e3!4m7!3m6!1s0x89c6c626b3e0c3a1:0x5fd790791c980cdd!8m2!3d39.9437871!4d-75.1590478!9m1!1b1",Charles Seger Park,Charles Seger Park,1020 LOMBARD ST
270,2301 N 04TH ST,Eric N Casiano Field,"https://www.google.com/maps/place/Eric+Casiano+Field/@39.9857314,-75.1392068,562m/data=!3m1!1e3!4m7!3m6!1s0x89c6c8109b2a90f9:0x83311ce58a35fdb2!8m2!3d39.9857314!4d-75.1392068!9m1!1b1",Eric N Casiano Field,Eric N. Casiano Field,2301 N 04TH ST
271,25 LOCK ST,Venice Island Performing Arts and Recreation Center,"https://www.google.com/maps/place/Venice+Island+Performing+Arts+%26+Recreation+Center/@40.023476,-75.222226,562m/data=!3m1!1e3!4m7!3m6!1s0x89c6b895bcca36a7:0xd3bcbe23906e7c07!8m2!3d40.0235429!4d-75.2221449!9m1!1b1",Venice Island Performing Arts and Recreation Center,Venice Island Performing Arts and Recreation Center,25 LOCK ST
272,1403 N HANCOCK ST,Hancock Playground,"https://www.google.com/maps/place/Hancock+Playground/@39.9729105,-75.1372078,562m/data=!3m1!1e3!4m7!3m6!1s0x89c6c86bc9c553ab:0x85d261dce0ef7ab1!8m2!3d39.9729105!4d-75.1372078!9m1!1b1",Hancock Playground,Hancock Playground,1403 N HANCOCK ST
273,5825 SPRUCE ST,Howard Sayre Morris Recreation Center,"https://www.google.com/maps/place/SAYRE+MORRIS+RECREATION+CENTER/@39.9564793,-75.2386538,562m/data=!3m1!1e3!4m7!3m6!1s0x89c6c6cfa9cfffff:0x68d8aa70781ded1c!8m2!3d39.9563175!4d-75.2386879!9m1!1b1",Howard Sayre Morris Recreation Center,Howard Sayre Morris Recreation Center,5825 SPRUCE ST
274,2198 S 2ND ST,Reverend Edward P Burke Playground,"https://www.google.com/maps/place/Burke+Playground/@39.9210029,-75.1505177,563m/data=!3m1!1e3!4m7!3m6!1s0x89c6c8abbf4c2119:0xbf099c84beaf810c!8m2!3d39.9210029!4d-75.1505177!9m1!1b1",Reverend Edward P Burke Playground,Reverend Edward P. Burke Playground,2198 S 2ND ST
276,5601 BALTIMORE AVE,Sherwood Park,"https://www.google.com/maps/place/Sherwood+Park/@39.9467105,-75.2375143,562m/data=!3m1!1e3!4m7!3m6!1s0x89c6c6b7856103db:0x4264c6881bfa6fe5!8m2!3d39.9467105!4d-75.2375143!9m1!1b1",Sherwood Park,,5601 BALTIMORE AVE
277,5215 GREENE ST,Howell Park,"https://www.google.com/maps/place/Howell+Park/@40.0304118,-75.1687574,562m/data=!3m1!1e3!4m7!3m6!1s0x89c6b830792d12bd:0x4aa0dfae96b528ee!8m2!3d40.0304118!4d-75.1687574!9m1!1b1",Howell Park,Howell Park,5215 GREENE ST
278,714 N 39TH ST,Norman (Butch) Ellis Playground,"https://www.google.com/maps/place/39th+and+Olive+Playground/@39.9657937,-75.2033192,562m/data=!3m1!1e3!4m15!1m7!3m6!1s0x89c6c7aa896ae239:0x5541f13bcd671768!2s714+N+39th+St,+Philadelphia,+PA+19104!3b1!8m2!3d39.966172!4d-75.2005941!3m6!1s0x89c6c70077cf57eb:0x4b75f42ebefc3d35!8m2!3d39.9659544!4d-75.2009359!9m1!1b1",Norman (Butch) Ellis Playground,Norman (Butch) Ellis Playground,714 N 39TH ST
279,1866 N HOWARD ST,Michael J Towey Playground,"https://www.google.com/maps/place/Towey+Playground/@39.9785893,-75.1350186,562m/data=!3m1!1e3!4m7!3m6!1s0x89c6c81458dbf675:0xb5b93a52cd5f9621!8m2!3d39.9785893!4d-75.1350186!9m1!1b1",Michael J Towey Playground,Michael J. Towey Playground,1866 N HOWARD ST
280,1222 E MONTGOMERY AVE,Fishtown Recreation Center,"https://www.google.com/maps/place/Fishtown+Recreation+Center/@39.9719313,-75.1278709,562m/data=!3m1!1e3!4m7!3m6!1s0x89c6c84117539fef:0x9a2cf0d53fbfb279!8m2!3d39.9719345!4d-75.1278603!9m1!1b1",Fishtown Recreation Center,Fishtown Recreation Center,1222 E MONTGOMERY AVE
281,129 CARPENTER ST,Shot Tower Recreation Center,"https://www.google.com/maps/place/Shot+Tower+Recreation+Center/@39.9349863,-75.1459103,563m/data=!3m1!1e3!4m7!3m6!1s0x89c6c8a2520f1dc1:0x830325bb9bb44e3f!8m2!3d39.9349863!4d-75.1459103!9m1!1b1",Shot Tower Recreation Center,Shot Tower Recreation Center,129 CARPENTER ST
282,424 E INDIANA AVE,Marian Winfield Hissey Recreation Center,"https://www.google.com/maps/place/Hissey+Playground/@39.9943801,-75.125093,562m/data=!3m1!1e3!4m15!1m7!3m6!1s0x89c6b7d884d21797:0x820c71003832c901!2s424+E+Indiana+Ave,+Philadelphia,+PA+19134!3b1!8m2!3d39.9945691!4d-75.1230223!3m6!1s0x89c6b7d89debb0d1:0x8333b36c2ab476af!8m2!3d39.9943258!4d-75.1233422!9m1!1b1",Marian Winfield Hissey Recreation Center,Marian Winfield Hissey Recreation Center,424 E INDIANA AVE
284,1987 W ONTARIO ST,Jerome Brown Playground,"https://www.google.com/maps/place/Jerome+Brown+Playground/@40.005783,-75.1639739,562m/data=!3m1!1e3!4m15!1m7!3m6!1s0x89c6b8046efcb299:0x912dc80042fd14f8!2s1987+W+Ontario+St,+Philadelphia,+PA+19140!3b1!8m2!3d40.0058981!4d-75.1617208!3m6!1s0x89c6b80469b48983:0x805a54bee760cb34!8m2!3d40.0065002!4d-75.1612872!9m1!1b1",Jerome Brown Playground,Jerome Brown Park Playground,1987 W ONTARIO ST
285,4250 RIDGE AVE,Inn Yard Park,"https://www.google.com/maps/place/Inn+Yard+Park/@40.0090982,-75.1953324,562m/data=!3m1!1e3!4m7!3m6!1s0x89c6b87c0c053191:0x627e373fae352fdf!8m2!3d40.0090982!4d-75.1953324!9m1!1b1",East Fairmount Park,,4250 RIDGE AVE
287,6941 GERMANTOWN AVE,Lovett Park,"https://www.google.com/maps/place/Lovett+Park/@40.0567982,-75.1876883,562m/data=!3m1!1e3!4m7!3m6!1s0x89c6b9df40718cd3:0xf595f662c8535ca2!8m2!3d40.0567982!4d-75.1876883!9m1!1b1",Lovett Park,,6941 GERMANTOWN AVE
288,4200 LANSDOWNE DR,Kelly Pool,"https://www.google.com/maps/place/Centennial+Arboretum/@39.9811011,-75.2165514,962m/data=!3m1!1e3!4m15!1m7!3m6!1s0x89c6c712077915f5:0xdb5c15bb20cb5090!2s4200+Lansdowne+Dr,+Philadelphia,+PA+19104!3b1!8m2!3d39.9810775!4d-75.2130798!3m6!1s0x89c6c70ce81018f7:0x58086e464d0dc7f1!8m2!3d39.9830151!4d-75.2138397!9m1!1b1",West Fairmount Park,,4200 LANSDOWNE DR
290,2001 W TIOGA ST,20th and Tioga Field,"https://www.google.com/maps/place/20th+%26+Tioga+Street+Park/@40.007803,-75.1616521,562m/data=!3m1!1e3!4m7!3m6!1s0x89c6b80495188afb:0x3012bf09959f9def!8m2!3d40.007803!4d-75.1616521!9m1!1b1",20th and Tioga Field,20th and Tioga (Kenderton Field),2001 W TIOGA ST
291,1322 S 02ND ST,Nelson M Herron Playground and Recreation Center,"https://www.google.com/maps/place/Herron+Playground/@39.9306656,-75.14889,143m/data=!3m1!1e3!4m7!3m6!1s0x89c6c8a69a9d049b:0xf9a6f06b815ae882!8m2!3d39.9306646!4d-75.1483428!9m1!1b1",Nelson M Herron Playground and Recreation Center,Nelson M. Herron Playground and Recreation Center,1322 S 02ND ST
292,2528 HOBSON ST,Buist Park,"https://www.google.com/maps/place/Buist+Park/@39.9186771,-75.2331545,563m/data=!3m1!1e3!4m7!3m6!1s0x89c6c5bc94b65b97:0xf39177bfbecde0de!8m2!3d39.9186771!4d-75.2331545!9m1!1b1",Buist Park,,2528 HOBSON ST
293,2137 E HAZZARD ST,Black Coyle and McBride Playground,"https://www.google.com/maps/place/Pop's+Playground/@39.9834298,-75.1249255,397m/data=!3m1!1e3!4m15!1m7!3m6!1s0x89c6c83b36fc3477:0xb948d4ac51b949b3!2s2137+E+Hazzard+St,+Philadelphia,+PA+19125!3b1!8m2!3d39.9836119!4d-75.123384!3m6!1s0x89c6c83b344baca1:0xb90c6b5b37e9e8b6!8m2!3d39.9839462!4d-75.1236943!9m1!1b1",Black Coyle and McBride Playground,"Black, Coyle, and McBride Playground",2137 E HAZZARD ST
294,5655 GRAYS AVE,Russell DeRitis Playground,"https://www.google.com/maps/place/Deritis+Playground/@39.9318273,-75.2202844,563m/data=!3m1!1e3!4m7!3m6!1s0x89c6c69935d22a1d:0xd4ecd37ca44f2292!8m2!3d39.9318273!4d-75.2202844!9m1!1b1",Russell DeRitis Playground,Russell DeRitis Playground,5655 GRAYS AVE
295,4418 MANAYUNK AVE,Fairview Park,"https://www.google.com/maps/place/Fairview+Park/@40.0303659,-75.2210444,285m/data=!3m1!1e3!4m7!3m6!1s0x89c6b8ebbe0ef327:0x1a6bb993ee523690!8m2!3d40.0303644!4d-75.2202557!9m1!1b1",Fairview Park,,4418 MANAYUNK AVE
296,1200 CARPENTER ST,Hawthorne Cultural Center,"https://www.google.com/maps/place/Hawthorne+Cultural+Center/@39.9383386,-75.1634761,563m/data=!3m1!1e3!4m7!3m6!1s0x89c6c61863261429:0xf72da4beae41bcff!8m2!3d39.9383386!4d-75.1634761!9m1!1b1",Hawthorne Cultural Center,Hawthorne Cultural Center,1200 CARPENTER ST
298,2200 E DAUPHIN ST,Konrad Square,"https://www.google.com/maps/place/Konrad+Square/@39.9793192,-75.1279946,562m/data=!3m1!1e3!4m7!3m6!1s0x89c6c83e86a65e6b:0xd30d45b69b686676!8m2!3d39.9793192!4d-75.1279946!9m1!1b1",Konrad Square,,2200 E DAUPHIN ST
299,1301 CARPENTER ST,Ridgway Park,"https://www.google.com/maps/place/Ridgway+Park/@39.9389581,-75.164552,563m/data=!3m1!1e3!4m7!3m6!1s0x89c6c618747f2381:0x133adededcaa1a67!8m2!3d39.9389581!4d-75.164552!9m1!1b1",Ridgway Park,Ridgway Park,1301 CARPENTER ST
302,3302 WALLACE ST,33rd and Wallace Playground,"https://www.google.com/maps/place/33rd+and+Wallace+Playground/@39.9651987,-75.190585,562m/data=!3m1!1e3!4m7!3m6!1s0x89c6c7544a7474ef:0x3a143e88e621295!8m2!3d39.9651987!4d-75.190585!9m1!1b1",33rd and Wallace Playground,,3302 WALLACE ST
303,5430 RACE ST,Ann P Nichols Park,"https://www.google.com/maps/place/Nichols+Park/@39.9636871,-75.229832,562m/data=!3m1!1e3!4m7!3m6!1s0x89c6c783f086aad1:0x731dafbb2f08b5e4!8m2!3d39.9636871!4d-75.229832!9m1!1b1",Ann P Nichols Park,Ann P. Nichols Park,5430 RACE ST
304,425 QUEEN ST,Weccacoe Square,"https://www.google.com/maps/place/Weccacoe+Playground/@39.9381508,-75.1506344,563m/data=!3m1!1e3!4m7!3m6!1s0x89c6c89f4238a03d:0x66ff3c99e68a3c2b!8m2!3d39.9381508!4d-75.1506344!9m1!1b1",Weccacoe Square,Weccacoe Square,425 QUEEN ST
306,2987 ALMOND ST,Colonel Thomas J Powers Park,"https://www.google.com/maps/place/Powers+Park/@39.9820155,-75.1107263,562m/data=!3m1!1e3!4m15!1m7!3m6!1s0x89c6c82d4e953a37:0x4da42f119d1e816c!2s2987+Almond+St,+Philadelphia,+PA+19134!3b1!8m2!3d39.9828129!4d-75.108323!3m6!1s0x89c6c82d5eb327c3:0xdc189505a7165e18!8m2!3d39.9825042!4d-75.1089311!9m1!1b1",Colonel Thomas J Powers Park,Colonel Thomas J. Powers Park,2987 ALMOND ST
307,613 WHARTON ST,Gold Star Park,"https://www.google.com/maps/place/Gold+Star+Park/@39.9329364,-75.1551765,563m/data=!3m1!1e3!4m7!3m6!1s0x89c6c61dfd23b7fd:0x896b35949ec102b0!8m2!3d39.9329364!4d-75.1551765!9m1!1b1",Gold Star Park,,613 WHARTON ST
308,750 S 12TH ST,Hawthorne Park,"https://www.google.com/maps/place/Hawthorne+Park/@39.9406268,-75.1648817,563m/data=!3m1!1e3!4m15!1m7!3m6!1s0x89c6c6225b91f0cf:0x3a40e38f15c6f24a!2sHawthorne+Park,+Catharine+St,+Philadelphia,+PA+19147!3b1!8m2!3d39.94069!4d-75.1628377!3m6!1s0x89c6c7c730df1b33:0x760418c805d48574!8m2!3d39.9406268!4d-75.162693!9m1!1b1",Hawthorne Park,,750 S 12TH ST
310,3000 EDGEMONT ST,Thomas P Stokley Recreation Center,"https://www.google.com/maps/place/Stokley+Playground/@39.9821398,-75.1071642,562m/data=!3m1!1e3!4m7!3m6!1s0x89c6c9d2abf68579:0x8df4e8006a248f40!8m2!3d39.9821103!4d-75.1071379!9m1!1b1",Thomas P Stokley Recreation Center,Thomas P. Stokley Recreation Center,3000 EDGEMONT ST
311,4917 BALTIMORE AVE,Cedar Park,"https://www.google.com/maps/place/50th+Street+Park/@39.9480243,-75.223476,179m/data=!3m1!1e3!4m15!1m7!3m6!1s0x89c6c6eae9832c51:0x8055b7af53aa89cb!2s4917-53+Baltimore+Ave,+Philadelphia,+PA+19143!3b1!8m2!3d39.9482323!4d-75.2227012!3m6!1s0x89c6c7e070c993a7:0x4b37212b096edcef!8m2!3d39.9482465!4d-75.2230076!9m1!1b1",Cedar Park,,4917 BALTIMORE AVE
312,2501 WATERLOO ST,Waterloo Playground,"https://www.google.com/maps/place/Waterloo+Playground/@39.9882513,-75.1328646,562m/data=!3m1!1e3!4m7!3m6!1s0x89c6c818f66d3f09:0xedeb54c49e6fe88f!8m2!3d39.9882499!4d-75.1328531!9m1!1b1",Waterloo Playground,Waterloo Playground,2501 WATERLOO ST
315,1701 FRANKFORD AVE,Palmer Park,"https://www.google.com/maps/place/Palmer+Park/@39.9748662,-75.1325315,562m/data=!3m1!1e3!4m7!3m6!1s0x89c6c86ab666c1d1:0x63c17dc1eded7f3d!8m2!3d39.9748662!4d-75.1325315!9m1!1b1",Palmer Park,,1701 FRANKFORD AVE
316,2222 E AUBURN ST,Trenton and Auburn Playground,"https://www.google.com/maps/place/Trenton+%26+Auburn+Playground+%26+Park/@39.9864463,-75.1163482,562m/data=!3m1!1e3!4m7!3m6!1s0x89c6c82f02a09a87:0xc8075565f8851740!8m2!3d39.9864303!4d-75.1163698!9m1!1b1",Trenton and Auburn Playground,,2222 E AUBURN ST
317,633 SNYDER AVE,James Otis Ford Playground,"https://www.google.com/maps/place/Ford+PAL+Recreational+Center/@39.9229831,-75.1586574,286m/data=!3m1!1e3!4m15!1m7!3m6!1s0x89c6c6017f05640d:0xb42cd509a04a9389!2s633+Snyder+Ave,+Philadelphia,+PA+19148!3b1!8m2!3d39.923086!4d-75.157595!3m6!1s0x89c6c601775a29f1:0x8613ffbe918477cf!8m2!3d39.9229338!4d-75.1573054!9m1!1b1",James Otis Ford Playground,James Otis Ford Playground,633 SNYDER AVE
318,4998 SPRUCE ST,Ben Barkan Park,"https://www.google.com/maps/place/Barkan+Park/@39.9538289,-75.2215608,562m/data=!3m1!1e3!4m7!3m6!1s0x89c6c6e906b026b7:0x68a8b5ff8da5b3a1!8m2!3d39.9538289!4d-75.2215608!9m1!1b1",Ben Barkan Park,,4998 SPRUCE ST
319,5433 LANSDOWNE AVE,Charles A Baker Playground,"https://www.google.com/maps/place/Baker+Playground/@39.9773826,-75.2312243,562m/data=!3m1!1e3!4m7!3m6!1s0x89c6c724a3b16c6d:0xd3f423215a97825a!8m2!3d39.9773826!4d-75.2312243!9m1!1b1",Charles A Baker Playground,Charles A. Baker Playground,5433 LANSDOWNE AVE
320,2098 N 08TH ST,8th and Diamond Playground,"https://www.google.com/maps/place/8th+%26+Diamond+Playground/@39.9831511,-75.1474398,562m/data=!3m1!1e3!4m7!3m6!1s0x89c6c80ea1914045:0x3f4ed0cd615b4291!8m2!3d39.9831511!4d-75.1474398!9m1!1b1",8th and Diamond Playground,,2098 N 08TH ST
321,2528 N 03RD ST,Frank S Nelson Jr Memorial Recreation Center,"https://www.google.com/maps/place/Nelson+Playground/@39.9893063,-75.1399625,562m/data=!3m1!1e3!4m15!1m7!3m6!1s0x89c6c81bc4ebcd8b:0xd8533bca3e8fdf62!2s2528+N+3rd+St,+Philadelphia,+PA+19133!3b1!8m2!3d39.9894049!4d-75.1380742!3m6!1s0x89c6c81bcc9488cb:0xb82c717b0dae0fe3!8m2!3d39.9889813!4d-75.138222!9m1!1b1",Frank S Nelson Jr Memorial Recreation Center,"Frank S. Nelson, Jr. Memorial Recreation Center",2528 N 03RD ST
322,2301 PINE ST,Fitler Square,"https://www.google.com/maps/place/Fitler+Square/@39.9475745,-75.1799486,86m/data=!3m1!1e3!4m15!1m7!3m6!1s0x89c6c64715ebd6ff:0xfc34cd8f2a786651!2s2301+Pine+St,+Philadelphia,+PA+19103!3b1!8m2!3d39.9476121!4d-75.1797949!3m6!1s0x89c6c6471616dd31:0x5a6138b9d7a14309!8m2!3d39.9476!4d-75.1797556!9m1!1b1",Fitler Square,,2301 PINE ST
323,3115 N 22ND ST,Vincent G Panati Playground,"https://www.google.com/maps/place/Panati+Playground/@40.0014279,-75.1682636,383m/data=!3m1!1e3!4m7!3m6!1s0x89c6b964bc258aeb:0x7b5349432ca1128a!8m2!3d40.0018802!4d-75.1663318!9m1!1b1",Vincent G Panati Playground,Vincent G. Panati Playground,3115 N 22ND ST
324,800 W CUMBERLAND ST,Veterans Memorial Recreation Center of the Nineteenth Ward,"https://www.google.com/maps/place/Veterans+Playground/@39.9892315,-75.1469412,190m/data=!3m1!1e3!4m15!1m7!3m6!1s0x89c6c805af868d3f:0x5b3fea3eb9c59e38!2s800+W+Cumberland+St,+Philadelphia,+PA+19133!3b1!8m2!3d39.989178!4d-75.1462429!3m6!1s0x89c6c805acfd6867:0x8783f872354d25eb!8m2!3d39.9895171!4d-75.1463261!9m1!1b1",Veterans Memorial Recreation Center of the Nineteenth Ward,Veterans Memorial Recreation Center of the Nineteenth Ward,800 W CUMBERLAND ST
325,1533 W CLEARFIELD ST,Heritage Park Playground,"https://www.google.com/maps/place/Heritage+Park+Playground/@40.00042,-75.155239,562m/data=!3m1!1e3!4m7!3m6!1s0x89c6b8002e259539:0xc8e3b4ca1fcaf70d!8m2!3d40.00042!4d-75.155239!9m1!1b1",Heritage Park Playground,,1533 W CLEARFIELD ST
326,2612 E WESTMORELAND ST,Frank Glavin Playground,"https://www.google.com/maps/place/Frank+Glavin+Playground/@39.9863799,-75.1011502,562m/data=!3m1!1e3!4m7!3m6!1s0x89c6c9d6b2f6aaab:0xb01d0ccdfc42492f!8m2!3d39.9863799!4d-75.1011502!9m1!1b1",Frank Glavin Playground,The Frank Glavin Playground,2612 E WESTMORELAND ST
328,5419 UPLAND WAY,Triangle Park,"https://www.google.com/maps/place/Triangle+Park/@39.9845756,-75.235184,562m/data=!3m1!1e3!4m7!3m6!1s0x89c6c739e952ecd3:0xb61790a9665a7f13!8m2!3d39.9845756!4d-75.235184!9m1!1b1",Triangle Park,,5419 UPLAND WAY
329,721 S 08TH ST,Cianfrani Park,"https://www.google.com/maps/place/Cianfrani+Park/@39.940681,-75.155379,563m/data=!3m1!1e3!4m7!3m6!1s0x89c6c7190c021205:0x1566fccdb88df7f9!8m2!3d39.940681!4d-75.155379!9m1!1b1",Cianfrani Park,,721 S 08TH ST
330,4710 SPRUCE ST,Garden Court,"https://www.google.com/maps/place/Tennis+Court+Garden/@39.9530742,-75.2172598,166m/data=!3m1!1e3!4m15!1m7!3m6!1s0x89c6c6eee057dc59:0xa7f9655226b9976e!2s4710+Spruce+St,+Philadelphia,+PA+19139!3b1!8m2!3d39.9532242!4d-75.2165541!3m6!1s0x89c6c6eefe86daf3:0x1f5b57a0609f9eae!8m2!3d39.9531905!4d-75.2163921!9m1!1b1",Garden Court,,4710 SPRUCE ST
331,1101 N 38TH ST,Clayborne and Lewis Playground,"https://www.google.com/maps/place/Clayborn+%26+Lewis+Playground/@39.9735028,-75.1989495,562m/data=!3m1!1e3!4m7!3m6!1s0x89c6c86428d0f9eb:0xd02b43fe82faa81f!8m2!3d39.9735028!4d-75.1989495!9m1!1b1",Clayborne and Lewis Playground,Clayborne and Lewis Playground,1101 N 38TH ST
332,1321 STEINBER ST,Merritt Square,"https://www.google.com/maps/place/Merritt+Square+Park/@40.0041093,-75.1024737,562m/data=!3m1!1e3!4m7!3m6!1s0x89c6b633d30e0869:0x2774b4896029ff8d!8m2!3d40.0041093!4d-75.1024737!9m1!1b1",Merritt Square,,1321 STEINBER ST
333,155 W LEHIGH AVE,Gerald J Maguire Playground,"https://www.google.com/maps/place/Maguire+Playground/@39.9915992,-75.1330479,562m/data=!3m1!1e3!4m7!3m6!1s0x89c6c925f14ba725:0x602d02d4e283aa43!8m2!3d39.9915992!4d-75.1330479!9m1!1b1",Gerald J Maguire Playground,Gerald J. Maguire Playground,155 W LEHIGH AVE
335,214 CATHARINE ST,Mario Lanza Park,"https://www.google.com/maps/place/Mario+Lanza+Park/@39.937403,-75.147278,563m/data=!3m1!1e3!4m7!3m6!1s0x89c6c9c898af3d39:0xe58ae366188360a0!8m2!3d39.937403!4d-75.147278!9m1!1b1",Mario Lanza Park,,214 CATHARINE ST
337,3340 HAVERFORD AVE,James L Wright Playground,"https://www.google.com/maps/place/James+L.+Wright+Recreation+Center/@39.9637951,-75.1918915,186m/data=!3m1!1e3!4m15!1m7!3m6!1s0x89c6c7ad6af29fd1:0xf7d412ebf4389a6e!2s3340+Haverford+Ave,+Philadelphia,+PA+19104!3b1!8m2!3d39.9638934!4d-75.1912883!3m6!1s0x89c6c7ad3f74da9d:0x2c4f0b6d1ce36162!8m2!3d39.9639077!4d-75.1911551!9m1!1b1",James L Wright Playground,James L. Wright Playground,3340 HAVERFORD AVE
344,1000 W GLENWOOD AVE,Anna M Ross Park,"https://www.google.com/maps/place/Ross+Park/@39.9993241,-75.1466087,562m/data=!3m1!1e3!4m7!3m6!1s0x89c6b75aeed001c7:0x527d60e94eeac736!8m2!3d39.9993241!4d-75.1466087!9m1!1b1",Anna M Ross Park,Anna M. Ross Park,1000 W GLENWOOD AVE
345,2205 S 06TH ST,Emanuel Weinberg Park,"https://www.google.com/maps/place/Weinberg+Park/@39.9212534,-75.1565258,563m/data=!3m1!1e3!4m7!3m6!1s0x89c6c601afbb9419:0x50f925f46bd34154!8m2!3d39.9212534!4d-75.1565258!9m1!1b1",Emanuel Weinberg Park,Emanuel Weinberg Park,2205 S 06TH ST
347,3901 TERRACE ST,Wissahickon Neighbors Playground,"https://www.google.com/maps/place/Neighbors+Park/@40.0214456,-75.2153907,562m/data=!3m1!1e3!4m15!1m7!3m6!1s0x89c6b892062999bd:0xe761a395e36443f7!2sWissahickon+Neighbors+Park,+3901+Terrace+St,+Philadelphia,+PA+19128!3b1!8m2!3d40.0214941!4d-75.2131731!3m6!1s0x89c6b9b365fe9c37:0xc442ecc75085e07f!8m2!3d40.0214456!4d-75.213202!9m1!1b1",Wissahickon Neighbors Playground,Wissahickon Neighbors Playground,3901 TERRACE ST
348,328 S 11TH ST,Louis I Kahn Park,"https://www.google.com/maps/place/Kahn+Park/@39.9451228,-75.1599517,562m/data=!3m1!1e3!4m7!3m6!1s0x89c6c71af931347f:0x37aebf2b0b8590d0!8m2!3d39.9451228!4d-75.1599517!9m1!1b1",Louis I Kahn Park,,328 S 11TH ST
349,1444 N 04TH ST,Benson Park,"https://www.google.com/maps/place/Benson+Park/@39.9735303,-75.1426974,562m/data=!3m1!1e3!4m7!3m6!1s0x89c6c9b973294f19:0x6f013b6b31186de9!8m2!3d39.9735303!4d-75.1426974!9m1!1b1",Benson Park,,1444 N 04TH ST
351,113 W ONTARIO ST,John (Steve) Schmidt Playground,"https://www.google.com/maps/place/Schmidt+Playground/@40.0019505,-75.1294542,562m/data=!3m1!1e3!4m7!3m6!1s0x89c6b7ddba9d5601:0xe2d43ddee1486fb!8m2!3d40.0019505!4d-75.1294542!9m1!1b1",John (Steve) Schmidt Playground,John (Steve) Schmidt Playground,113 W ONTARIO ST
352,577 S TANEY ST,OConnor Pool,"https://www.google.com/maps/place/O'Connor+Pool/@39.9460979,-75.1834151,562m/data=!3m1!1e3!4m7!3m6!1s0x89c6c6415a005d57:0x60ef2df7033ca327!8m2!3d39.9460409!4d-75.1834284!9m1!1b1",OConnor Pool,,577 S TANEY ST
353,311 DELANCEY ST,Delancey Park,"https://www.google.com/maps/place/Three+Bears+Park/@39.9440661,-75.1485544,174m/data=!3m1!1e3!4m15!1m7!3m6!1s0x89c6c89b9b0599fb:0x41e479b1fcf9f3d3!2sDelancey+Park,+311+Delancey+St,+Philadelphia,+PA+19106!3b1!8m2!3d39.9442358!4d-75.1478798!3m6!1s0x89c6c89b9b0599fb:0xe6f18d007bd751f1!8m2!3d39.9440791!4d-75.1478962!9m1!1b1",Delancey Park,,311 DELANCEY ST
354,300 BAINBRIDGE ST,Edward Shippen Plaza (Bainbridge Green),"https://www.google.com/maps/place/Bainbridge+Green/@39.9407356,-75.1501667,563m/data=!3m1!1e3!4m7!3m6!1s0x89c6c89ee9d8f591:0x7a1a8f822de682c2!8m2!3d39.9407356!4d-75.1501667!9m1!1b1",Edward Shippen Plaza (Bainbridge Green),Edward Shippen Plaza/'Bainbridge Green',300 BAINBRIDGE ST
361,923 S 22ND ST,Julian Abele Park,"https://www.google.com/maps/place/Julian+Abele+Park/@39.9408843,-75.1792676,563m/data=!3m1!1e3!4m7!3m6!1s0x89c6c66a9f56281d:0x3add1e9e11fcd129!8m2!3d39.9408843!4d-75.1792676!9m1!1b1",Julian Abele Park,,923 S 22ND ST
362,1601 S 20TH ST,Ralph Brooks Park,"https://www.google.com/maps/place/Ralph+Brooks+Park/@39.9314448,-75.1776973,563m/data=!3m1!1e3!4m7!3m6!1s0x89c6c612ada7768f:0x39e25faa56ee4bf5!8m2!3d39.9314448!4d-75.1776973!9m1!1b1",Ralph Brooks Park,Ralph Brooks Park,1601 S 20TH ST
365,200 WASHINGTON AVE,Mummers Museum,"https://www.google.com/maps/place/Mummers+Museum/@39.9334402,-75.1475679,563m/data=!3m1!1e3!4m7!3m6!1s0x89c6c8a3c738dbeb:0x2f8eae1955320936!8m2!3d39.9334282!4d-75.1474801!9m1!1b1",Mummers Museum,,200 WASHINGTON AVE
367,7018 MC CALLUM ST,Ned Wolf Park,"https://www.google.com/maps/place/Ned+Wolf+Park/@40.0490557,-75.1965025,562m/data=!3m1!1e3!4m7!3m6!1s0x89c6b9a95ed5b057:0x7c4e7bbd27c01e45!8m2!3d40.0490557!4d-75.1965025!9m1!1b1",Ned Wolf Park,Ned Wolf Park,7018 MC CALLUM ST
368,239 ARCH ST,Betsy Ross House,"https://www.google.com/maps/place/Betsy+Ross+House/@39.9522263,-75.1446513,562m/data=!3m1!1e3!4m7!3m6!1s0x89c6c886723e880f:0xd62f93bae96423b7!8m2!3d39.9522187!4d-75.1446511!9m1!1b1",Betsy Ross House,Betsy Ross House,239 ARCH ST
369,1000 S 10TH ST,Giuseppe Bardascino Park,"https://www.google.com/maps/place/Bardascino+Park/@39.9377962,-75.1599192,563m/data=!3m1!1e3!4m7!3m6!1s0x89c6c61f4ef519fd:0x1fb7d4020781d5a0!8m2!3d39.9377962!4d-75.1599192!9m1!1b1",Giuseppe Bardascino Park,Giuseppe Bardascino Park,1000 S 10TH ST
370,230 DICKINSON ST,Karen Donnelly Park,"https://www.google.com/maps/place/Karen+Donnelly+Park/@39.928931,-75.149452,17z/data=!4m7!3m6!1s0x89c6c8a66e28abf7:0x11e714b5f84c0bd2!8m2!3d39.928931!4d-75.149452!9m1!1b1",Karen Donnelly Park,Karen Donnelly Park,230 DICKINSON ST
371,1321 N 04TH ST,Thomas Hart Park,"https://www.google.com/maps/place/Thomas+Hart+Park/@39.9717307,-75.1425344,17z/data=!4m7!3m6!1s0x89c6c86dffc492c9:0x73a74fe8c744c9be!8m2!3d39.9717307!4d-75.1425344!9m1!1b1",Thomas Hart Park,Thomas Hart Park,1321 N 04TH ST
374,547 RISING SUN AVE,Hamilton Park,"https://www.google.com/maps/place/Hamilton+Park/@40.009072,-75.1383197,127m/data=!3m1!1e3!4m7!3m6!1s0x89c6b7c2f23bc71b:0xc88167badf8881c6!8m2!3d40.009072!4d-75.1383197!9m1!1b1",Hamilton Park,,547 RISING SUN AVE
376,5323 OVERBROOK AVE,John C Anderson Cultural Center,"https://www.google.com/maps/place/John+Anderson+Cultural+Center/@39.9951623,-75.2332504,510m/data=!3m1!1e3!4m7!3m6!1s0x89c6c7444f0a8af5:0xf4d19a7ab1e9b298!8m2!3d39.995168!4d-75.2332531!9m1!1b1",John C Anderson Cultural Center,John C. Anderson Cultural Center,5323 OVERBROOK AVE
380,732 SEARS ST,Louis P Paolone Sr Park,"https://www.google.com/maps/place/Louis+P+Paolone+Sr+Memorial+Park/@39.9322007,-75.1585238,510m/data=!3m1!1e3!4m15!1m7!3m6!1s0x89c6c61dcf377cc5:0xafc9422d26761337!2sPaolone+Park,+732+Sears+St,+Philadelphia,+PA+19147!3b1!8m2!3d39.9323318!4d-75.1568638!3m6!1s0x89c6c78ac640a063:0xde22c50265aadf06!8m2!3d39.932405!4d-75.157191!9m1!1b1",Louis P Paolone Sr Park,,732 SEARS ST
382,839 S 02ND ST,Beck Park,"https://www.google.com/maps/place/Beck+Park/@39.9364862,-75.1464315,510m/data=!3m1!1e3!4m7!3m6!1s0x89c6c98e75a1e81b:0xdd731e63a2702bfb!8m2!3d39.9364862!4d-75.1464315!9m1!1b1",Beck Park,,839 S 02ND ST
386,2200 CATHARINE ST,22nd and Catharine Park,"https://www.google.com/maps/place/Catharine+Park+%26+Aviv's+Garden/@39.942273,-75.1796903,67m/data=!3m1!1e3!4m15!1m7!3m6!1s0x89c6c6403e2e7849:0x6efc2f4ca2c04a37!2s2200+Catharine+St,+Philadelphia,+PA+19146!3b1!8m2!3d39.9422774!4d-75.1793917!3m6!1s0x89c6c640157a8dc9:0xd63714ab374de9d9!8m2!3d39.9423856!4d-75.1793156!9m1!1b1",22nd and Catharine Park,,2200 CATHARINE ST
387,,I-95 Park,"https://www.google.com/maps/place/I-95+Park/@39.9477778,-75.1420086,510m/data=!3m1!1e3!4m7!3m6!1s0x89c6c88f92b54067:0x59b25dddf7c0d526!8m2!3d39.9477778!4d-75.1420086!9m1!1b1",I-95 Park,,
388,3001 E ALLEGHENY AVE,General Casimir Pulaski Park,"https://www.google.com/maps/place/General+Pulaski+Park/@39.9785668,-75.0975186,510m/data=!3m1!1e3!4m7!3m6!1s0x89c6c9cf98cab891:0xba6df2465f14147b!8m2!3d39.9785668!4d-75.0975186!9m1!1b1",General Casimir Pulaski Park,General Casimir Pulaski Park,3001 E ALLEGHENY AVE
390,2563 N 22ND ST,Cecil B Moore Recreation Center,"https://www.google.com/maps/place/C.B.+Moore+Recreation+Center/@39.9936071,-75.1683637,226m/data=!3m1!1e3!4m15!1m7!3m6!1s0x89c6c7f0c1e51e37:0xd97e999bba7b10f6!2s2563+N+22nd+St,+Philadelphia,+PA+19132!3b1!8m2!3d39.9936819!4d-75.1677296!3m6!1s0x89c6c7f0ebda13d1:0x9bc38f5d184754c8!8m2!3d39.9934442!4d-75.1678469!9m1!1b1",Cecil B Moore Recreation Center,Cecil B. Moore Recreation Center,2563 N 22ND ST
391,4301 LANSDOWNE DR,Shofuso Japanese Garden,"https://www.google.com/maps/place/Shofuso+Japanese+House+and+Garden/@39.9810925,-75.2142724,271m/data=!3m1!1e3!4m15!1m7!3m6!1s0x89c6c712077915f5:0x3ce0b99657e2679c!2s4301+Lansdowne+Dr,+Philadelphia,+PA+19104!3b1!8m2!3d39.9810775!4d-75.2130798!3m6!1s0x89c6c712055a8b3d:0x4c3dde67c125ac70!8m2!3d39.9813874!4d-75.2129429!9m1!1b1",West Fairmount Park,Shofuso Japanese Garden,4301 LANSDOWNE DR
394,400 MARTIN LUTHER KING DRIVE,Paines Park,"https://www.google.com/maps/place/Paine's+Park/@39.9628739,-75.1806211,510m/data=!3m1!1e3!4m7!3m6!1s0x89c6c7b51e9292af:0x527c924ed245fae4!8m2!3d39.9628739!4d-75.1806211!9m1!1b1",Benjamin Franklin Parkway,,400 MARTIN LUTHER KING DRIVE
396,2140 MARKET ST,June 5th Memorial Park ,"https://www.google.com/maps/place/June+5th+Memorial+Park/@39.95365,-75.176816,64m/data=!3m1!1e3!4m15!1m7!3m6!1s0x89c6c63635d2e277:0x4ac5fa02ff098eda!2s2140+Market+St,+Philadelphia,+PA+19103!3b1!8m2!3d39.9536775!4d-75.1765508!3m6!1s0x89c6c63649d8dc7b:0xcdd95512aa4d4007!8m2!3d39.9538109!4d-75.1765818!9m1!1b1",June 5th Memorial Park ,,2140 MARKET ST
397,1300 N 16TH ST,Ingersoll Park,"https://www.google.com/maps/place/Ingersoll+Park/@39.9745036,-75.1624193,128m/data=!3m1!1e3!4m7!3m6!1s0x89c6c7dc70d1b257:0xd5fce8d5555d1bca!8m2!3d39.9745036!4d-75.1624193!9m1!1b1",Ingersoll Park,,1300 N 16TH ST
415,5001 GRANT AVE,Glen Foerd on the Delaware,"https://www.google.com/maps/place/Glen+Foerd/@40.0517258,-74.9792996,116m/data=!3m1!1e3!4m15!1m7!3m6!1s0x89c6b4a8a2518479:0x624e4727a66ebfb4!2s5001+Grant+Ave,+Philadelphia,+PA+19114!3b1!8m2!3d40.0515823!4d-74.9789134!3m6!1s0x89c6b14dd69ec9cd:0x9fd69b6e20dc3d03!8m2!3d40.0516472!4d-74.9788194!9m1!1b1",Glen Foerd on the Delaware,,5001 GRANT AVE
416,651 W ALLENS LN,Allens Lane Art Center,"https://www.google.com/maps/place/Allens+Lane+Art+Center/@40.0519751,-75.2031554,510m/data=!3m2!1e3!5s0x89c6b9070c99d123:0xd734a3d56152ebfc!4m7!3m6!1s0x89c6b90781411eb7:0xd5b43f63a11b6504!8m2!3d40.0520402!4d-75.2030946!9m1!1b1",Allens Lane Art Center,,651 W ALLENS LN
417,2501 W DIAMOND ST,Eric W (Hank) Gathers Jr Recreation Center,"https://www.google.com/maps/place/Hank+Gathers+Youth+Access+Center/@39.9870904,-75.1761056,312m/data=!3m1!1e3!4m15!1m7!3m6!1s0x89c6c7ec5ec0a26d:0x9e314d5ff17f5456!2s2501+W+Diamond+St,+Philadelphia,+PA+19121!3b1!8m2!3d39.9872532!4d-75.1746479!3m6!1s0x89c6c7ec5db0e2af:0x6f959db5d6bee8ae!8m2!3d39.9875932!4d-75.1751495!9m1!1b1",Eric W (Hank) Gathers Jr Recreation Center,"Eric W. (Hank) Gathers, Jr. Recreation Center",2501 W DIAMOND ST
418,302 N 24TH ST,River Field,"https://www.google.com/maps/place/Friends+of+River+Field/@39.9606211,-75.1813847,510m/data=!3m1!1e3!4m15!1m7!3m6!1s0x89c6c64ab77e6d95:0xdb3aefca64dacac7!2s302+N+24th+St,+Philadelphia,+PA+19130!3b1!8m2!3d39.9606458!4d-75.1791424!3m6!1s0x89c6c7b542d92bc3:0xa6a5c20475c64c26!8m2!3d39.9623943!4d-75.1786588!9m1!1b1",Benjamin Franklin Parkway,River Field,302 N 24TH ST
419,1635 ARCH ST,Levy Park,"https://www.google.com/maps/place/Levy+Park/@39.9551114,-75.1672885,510m/data=!3m1!1e3!4m7!3m6!1s0x89c6c63219614cc5:0xf6b240a913df5650!8m2!3d39.9551114!4d-75.1672885!9m1!1b1",Benjamin Franklin Parkway,,1635 ARCH ST
420,4901 KINGSESSING AVE,Kingsessing Recreation Center,"https://www.google.com/maps/place/Kingsessing+Recreation+Center/@39.9426994,-75.217247,510m/data=!3m1!1e3!4m7!3m6!1s0x89c6c694090ce20f:0x16bae4e52edfa920!8m2!3d39.9424957!4d-75.217001!9m1!1b1",Kingsessing Recreation Center,Kingsessing Recreation Center,4901 KINGSESSING AVE
421,1600 S 29TH ST,William Lanier Park,"https://www.google.com/maps/place/Lanier+Playground/@39.9334144,-75.1959524,510m/data=!3m1!1e3!4m15!1m7!3m6!1s0x89c6c664cb1d7dbb:0xe1e1bdd006c7c05b!2sLanier+Park,+Philadelphia,+PA+19145!3b1!8m2!3d39.933304!4d-75.1935698!3m6!1s0x89c6c8a54484f76d:0xe04ebb677885f0c1!8m2!3d39.9334144!4d-75.1937637!9m1!1b1",William Lanier Park,,1600 S 29TH ST
423,109 SPRUCE ST,Korean War Veterans Memorial,"https://www.google.com/maps/place/Philadelphia+Korean+War+Memorial+Park/@39.9444536,-75.1444186,203m/data=!3m1!1e3!4m15!1m7!3m6!1s0x89c6c89a854fa63f:0xcd51351f627fc125!2s109+Spruce+St,+Philadelphia,+PA+19106!3b1!8m2!3d39.9446684!4d-75.1435245!3m6!1s0x89c6c89a9d02267d:0xa4e0c22457d4fbca!8m2!3d39.94499!4d-75.1434371!9m1!1b1",I-95 Park,Korean War Veteran's Memorial,109 SPRUCE ST
425,315 FAIRMOUNT AVE,Northern Liberties Recreation Center,"https://www.google.com/maps/place/Northern+Liberties+Recreation+Center/@39.9626764,-75.1449664,212m/data=!3m1!1e3!4m15!1m7!3m6!1s0x89c6c87b446998e3:0xffd2801da37b7977!2s315+Fairmount+Ave,+Philadelphia,+PA+19123!3b1!8m2!3d39.9627555!4d-75.1436892!3m6!1s0x89c6c87b4f0d2e83:0x4e7bf03543e81d3c!8m2!3d39.96274!4d-75.1438048!9m1!1b1",Northern Liberties Recreation Center,Northern Liberties Recreation Center,315 FAIRMOUNT AVE
426,200 N 19TH ST,Aviator Park,"https://www.google.com/maps/place/Aviator+Park/@39.957954,-75.1718647,510m/data=!3m1!1e3!4m7!3m6!1s0x89c6c6337f288bcb:0xb9d5cd529d8ed4d7!8m2!3d39.957954!4d-75.1718647!9m1!1b1",Benjamin Franklin Parkway,Aviator Park,200 N 19TH ST
427,200 N 18TH ST,Sister Cities Park,"https://www.google.com/maps/place/Sister+Cities+Park/@39.9579056,-75.1693389,510m/data=!3m1!1e3!4m7!3m6!1s0x89c6c6330395a42b:0xd203a4be75a5da68!8m2!3d39.9579056!4d-75.1693389!9m1!1b1",Benjamin Franklin Parkway,Sister Cities Park,200 N 18TH ST
428,110 N 16TH ST,Cret Park,"https://www.google.com/maps/place/Cret+Park/@39.9555435,-75.1665607,510m/data=!3m1!1e3!4m7!3m6!1s0x89c6c63209558d9b:0x205fc789e2fc1a56!8m2!3d39.9555435!4d-75.1665607!9m1!1b1",Benjamin Franklin Parkway,Cret Park,110 N 16TH ST
430,2200 BENJ FRANKLIN PKY,Binswanger Triangle,"https://www.google.com/maps/place/The+Binswanger+Triangle/@39.9621494,-75.1802175,510m/data=!3m1!1e3!4m7!3m6!1s0x89c6c750c50b7e2b:0x859157e269ea16c2!8m2!3d39.9628155!4d-75.1772134!9m1!1b1",Benjamin Franklin Parkway,Binswanger Triangle,2200 BENJ FRANKLIN PKY
431,5198 PRINCETON AVE,Tacony Boat Launch,"https://www.google.com/maps/place/Tacony+Boat+Launch/@40.0220947,-75.034111,510m/data=!3m1!1e3!4m7!3m6!1s0x89c6b5b4620dc5cd:0x9c04b4b2f89ddccf!8m2!3d40.0220947!4d-75.034111!9m1!1b1",Tacony Boat Launch,Tacony Boat Launch,5198 PRINCETON AVE
432,801 W SEDGWICK ST,Carpenters Woods,"https://www.google.com/maps/place/Carpenter's+Woods/@40.0440411,-75.2016692,510m/data=!3m1!1e3!4m15!1m7!3m6!1s0x89c6b8555c4c1bb9:0x14ddf970d400c4eb!2s801+W+Sedgwick+St,+Philadelphia,+PA+19119!3b1!8m2!3d40.0442793!4d-75.2001242!3m6!1s0x89c6b8ffd87bfb2d:0x82788b05e186a9bb!8m2!3d40.0456263!4d-75.2006428!9m1!1b1",Wissahickon Valley Park,Carpenter's Woods,801 W SEDGWICK ST
433,9800 E ROOSEVELT BLVD,Officer Robert Hayes Memorial Playground Woods,"https://www.google.com/maps/place/Hayes+Memorial+Playground/@40.0913647,-75.0264,1199m/data=!3m1!1e3!4m15!1m7!3m6!1s0x89c6b3a8ff9de65d:0xcaca78644f4c60c2!2s9800+E+Roosevelt+Blvd,+Philadelphia,+PA+19115!3b1!8m2!3d40.093669!4d-75.0181689!3m6!1s0x89c6b3af54f993d9:0x5d2d54622a5f7f55!8m2!3d40.0916564!4d-75.020818!9m1!1b1",Officer Robert Hayes Memorial Playground,,9800 E ROOSEVELT BLVD
434,9949 PRESIDENT ST,Officer Robert Hayes Memorial Playground,"https://www.google.com/maps/place/Hayes+Woods/@40.0895828,-75.0251551,486m/data=!3m1!1e3!4m15!1m7!3m6!1s0x89c6b3af4374fc25:0x1ee59749239ad59e!2s9949+President+St,+Philadelphia,+PA+19115!3b1!8m2!3d40.0922558!4d-75.0208394!3m6!1s0x89c6b3cdec0d44b3:0xfb92eaa4bda9f91!8m2!3d40.0888466!4d-75.0231616!9m1!1b1",Officer Robert Hayes Memorial Playground,Officer Robert Hayes Memorial Playground,9949 PRESIDENT ST
436,201 E INDIANA AVE,Hope Park,"https://www.google.com/maps/place/Hope+Park/@39.9954866,-75.1276069,510m/data=!3m1!1e3!4m7!3m6!1s0x89c6b780294831e9:0x89f85b4d7bb6f099!8m2!3d39.9954866!4d-75.1276069!9m1!1b1",Hope Park,Hope Park,201 E INDIANA AVE
437,200 N 18TH ST,Logan Square,"https://www.google.com/maps/place/Logan+Square/@39.9580333,-75.1709604,510m/data=!3m1!1e3!4m7!3m6!1s0x89c6c6340bae2b6b:0xeafc6fecb3b94e6a!8m2!3d39.9580333!4d-75.1709604!9m1!1b1",Benjamin Franklin Parkway,Logan Square,200 N 18TH ST
438,110 TITAN ST,Titan Park,"https://www.google.com/maps/place/Titan+Park/@39.9317243,-75.1467214,510m/data=!3m1!1e3!4m7!3m6!1s0x89c6c8a476fb7431:0x4e8e5bede52da8af!8m2!3d39.9317243!4d-75.1467214!9m1!1b1",Titan Park,,110 TITAN ST
443,5301 PARKSIDE AVE,Philly Pumptrack,"https://www.google.com/maps/place/Philly+Pumptrack/@39.984645,-75.2264549,510m/data=!3m1!1e3!4m7!3m6!1s0x89c6c73e4a362ee1:0x3e256f20fe25cd90!8m2!3d39.984645!4d-75.2264549!9m1!1b1",West Fairmount Park,,5301 PARKSIDE AVE
446,1299 BREWERY HILL DR,Glendinning Rock Garden,"https://www.google.com/maps/place/Glendinning+Rock+Garden/@39.9764501,-75.1912,562m/data=!3m1!1e3!4m7!3m6!1s0x89c6c7a4ebf2e681:0x437d1a39aa171a3c!8m2!3d39.9764501!4d-75.1912!9m1!1b1",East Fairmount Park,,1299 BREWERY HILL DR
447,1856 VINE ST,Galusha Pennypacker Park,"https://www.google.com/maps/place/Sister+Cities+Park/@39.9578646,-75.1715934,486m/data=!3m1!1e3!4m15!1m7!3m6!1s0x89c6c6331dd16813:0xd70793784e3e695a!2s1856+Vine+St,+Philadelphia,+PA+19103!3b1!8m2!3d39.958248!4d-75.169834!3m6!1s0x89c6c6330395a42b:0xd203a4be75a5da68!8m2!3d39.9579056!4d-75.1693389!9m1!1b1",Benjamin Franklin Parkway,Galusha Pennypacker Park,1856 VINE ST
448,1948 VINE ST,Shakespeare Park,"https://www.google.com/maps/place/Shakespeare+Park/@39.9589759,-75.1712465,562m/data=!3m1!1e3!4m7!3m6!1s0x89c6c633681e68b3:0xba15e4a89a8e8b2!8m2!3d39.9589759!4d-75.1712465!9m1!1b1",Benjamin Franklin Parkway,Shakespeare Park,1948 VINE ST
450, ,Cobbs Creek Park,"https://www.google.com/maps/place/Cobbs+Creek+Park/@39.9406316,-75.2391707,563m/data=!3m1!1e3!4m7!3m6!1s0x89c6c6b1b32a4cad:0x6b26bae08b84711b!8m2!3d39.9406316!4d-75.2391707!9m1!1b1",Cobbs Creek Park,Cobbs Creek Park, 
451,4372 HAVERFORD AVE,John A Lee Cultural Center,"https://www.google.com/maps/place/Lee+Cultural+Center/@39.9619998,-75.211644,562m/data=!3m1!1e3!4m15!1m7!3m6!1s0x89c6c6fc522aeab1:0x57d44dcd3f49d865!2s4372+Haverford+Ave,+Philadelphia,+PA+19104!3b1!8m2!3d39.9624027!4d-75.2095197!3m6!1s0x89c6c6fc55d5233b:0x602286d1e7ee0b86!8m2!3d39.9620361!4d-75.2098999!9m1!1b1",John A Lee Cultural Center,John A. Lee Cultural Center,4372 HAVERFORD AVE
452,7370 CENTRAL AVE,Burholme Park,"https://www.google.com/maps/place/Burholme+Park/@40.0671482,-75.089962,561m/data=!3m1!1e3!4m7!3m6!1s0x89c6b6ccedbac56b:0xc3dd719af1ea053a!8m2!3d40.0671482!4d-75.089962!9m1!1b1",Burholme Park,,7370 CENTRAL AVE
453,6014 WISSAHICKON AVE,Historic Rittenhouse Town,"https://www.google.com/maps/place/Historic+RittenhouseTown/@40.0296926,-75.1905736,562m/data=!3m1!1e3!4m7!3m6!1s0x89c6b844d2d5ed01:0x2846bce6af60e8b0!8m2!3d40.0296479!4d-75.1905505!9m1!1b1",Wissahickon Valley Park,Historic Rittenhouse Town,6014 WISSAHICKON AVE
455,2076 BELMONT MANSION DR,Belmont Grove,"https://www.google.com/maps/place/Belmont+Grove/@39.9923231,-75.2153042,562m/data=!3m1!1e3!4m7!3m6!1s0x89c6c76e6eeacf55:0x8097c86b9e630a5b!8m2!3d39.9923231!4d-75.2153042!9m1!1b1",West Fairmount Park,,2076 BELMONT MANSION DR
456,5038 AVENUE OF THE REPUBLIC,Mann Center for the Performing Arts,"https://www.google.com/maps/place/The+Mann+Center/@39.9828469,-75.222072,562m/data=!3m1!1e3!4m7!3m6!1s0x89c6c715ef39b98b:0x1f521b22ae29cbd9!8m2!3d39.9828469!4d-75.222072!9m1!1b1",West Fairmount Park,The Mann Center for the Performing Arts,5038 AVENUE OF THE REPUBLIC
457,6141 WISSAHICKON AVE,Clifford Park,"https://www.google.com/maps/place/Clifford+Park/@40.0349476,-75.1968704,1124m/data=!3m1!1e3!4m15!1m7!3m6!1s0x89c6b85003e5a461:0x9014de1c9e43a532!2sClifford+Park,+Philadelphia,+PA+19104!3b1!8m2!3d40.0347186!4d-75.1888281!3m6!1s0x89c6b850f61ec267:0x1ed8bdd3ee71f1b8!8m2!3d40.0349476!4d-75.192493!9m1!1b1",Wissahickon Valley Park,,6141 WISSAHICKON AVE
458,844 W WALNUT LN,Blue Bell Park,"https://www.google.com/maps/place/Blue+Bell+Park/@40.0313015,-75.1946337,562m/data=!3m1!1e3!4m7!3m6!1s0x89c6b85bd378db1b:0x961eb17125af117a!8m2!3d40.0313015!4d-75.1946337!9m1!1b1",Wissahickon Valley Park,Blue Bell Park,844 W WALNUT LN
462,9750 FORBIDDEN DR,Andorra Natural Area,"https://www.google.com/maps/place/Andorra+Natural+Area/@40.0811675,-75.2338904,561m/data=!3m1!1e3!4m7!3m6!1s0x89c6b95bd608d011:0x8c8a5d8cdf3288b8!8m2!3d40.0811675!4d-75.2338904!9m1!1b1",Wissahickon Valley Park,,9750 FORBIDDEN DR
463,700 COBBS CREEK PKWY,Cobbs Creek Community Environmental Center,"https://www.google.com/maps/place/Cobbs+Creek+Community+Environmental+Center/@39.9520606,-75.2506256,562m/data=!3m2!1e3!5s0x89c6c1350bd3d86b:0x4a809579a2e89c55!4m7!3m6!1s0x89c6c6a522b03f9b:0x4f665d04e4af8f2f!8m2!3d39.9520606!4d-75.2506256!9m1!1b1",Cobbs Creek Park,,700 COBBS CREEK PKWY
464,669 W RITTENHOUSE ST,Saylors Grove,"https://www.google.com/maps/place/Children+at+Play/@40.0295799,-75.1888993,562m/data=!3m1!1e3!4m15!1m7!3m6!1s0x89c6b845ce948bf9:0xc0f003b3c932a398!2s669+W+Rittenhouse+St,+Philadelphia,+PA+19144!3b1!8m2!3d40.0300975!4d-75.1856377!3m6!1s0x89c6b844fd120807:0x9ed4fd97dec36ff!8m2!3d40.0300236!4d-75.1872325!9m1!1b1",Wissahickon Valley Park,,669 W RITTENHOUSE ST
469,105 REED ST,Howard and Reed Park,"https://www.google.com/maps/place/Howard+%26+Reed+Park/@39.9302661,-75.1468357,563m/data=!3m1!1e3!4m7!3m6!1s0x89c6c8a444232163:0x8a0cf8098b8ffd82!8m2!3d39.9302661!4d-75.1468357!9m1!1b1",Howard and Reed Park,,105 REED ST
470,201 S SARTAIN ST,Sartain Garden,"https://www.google.com/maps/place/Sartain+Street+Community+Garden/@39.9475396,-75.1602844,562m/data=!3m1!1e3!4m7!3m6!1s0x89c6c6260ab7e2f5:0x6d88fad073931e47!8m2!3d39.9475396!4d-75.1602844!9m1!1b1",Sartain Garden,,201 S SARTAIN ST
472,1341 N 27TH ST,Brewerytown Garden,"https://www.google.com/maps/place/Brewerytown+Garden/@39.9769192,-75.179614,562m/data=!3m1!1e3!4m7!3m6!1s0x89c6c7bf3717c5c9:0x8c9eab3c5f983605!8m2!3d39.9769192!4d-75.179614!9m1!1b1",Brewerytown Garden,,1341 N 27TH ST
473,3395 RESERVOIR DR,Discovery Center at East Fairmount Reservoir,"https://www.google.com/maps/place/The+Discovery+Center/@39.9819629,-75.1957693,676m/data=!3m1!1e3!4m15!1m7!3m6!1s0x89c6c7a261a6cadf:0xe68461eab8fe5344!2s3395+Reservoir+Dr,+Philadelphia,+PA+19121!3b1!8m2!3d39.9820372!4d-75.1922289!3m6!1s0x89c6c7a2850b97d5:0x826c94bed0b02e78!8m2!3d39.9827639!4d-75.1929865!9m1!1b1",East Fairmount Park,The Discovery Center at East Fairmount Reservoir,3395 RESERVOIR DR
474,3730 CHAMOUNIX DR,Chamounix Aerial Adventure Course,"https://www.google.com/maps/place/Treetop+Quest+Philly/@39.9970539,-75.2069002,955m/data=!3m1!1e3!4m15!1m7!3m6!1s0x89c6c7798c490b4f:0x51cbf36091db3b2!2s3730+Chamounix+Dr,+Philadelphia,+PA+19131!3b1!8m2!3d39.9970575!4d-75.204833!3m6!1s0x89c6c778a992e1d1:0xa4a1e3d45d3beca4!8m2!3d39.9985389!4d-75.2016018!9m1!1b1",West Fairmount Park,,3730 CHAMOUNIX DR
486,4615 FAIRMOUNT AVE,Lucien E Blackwell Park,"https://www.google.com/maps/place/Lucien+Blackwell+Park/@39.9651126,-75.2166318,562m/data=!3m1!1e3!4m14!1m6!3m5!1s0x89c6c733c23d0c1f:0x71e5b61cb11955e9!2sLucien+Blackwell+Community+Center!8m2!3d39.9658773!4d-75.2148723!3m6!1s0x0:0xe5abd7acfad9b4ac!8m2!3d39.9648084!4d-75.2147704!9m1!1b1",Lucien E Blackwell Park,Lucien E. Blackwell Park,4615 FAIRMOUNT AVE
487,9201 N DELAWARE AVE,Fish Hatchery at Pleasant Hill Park,"https://www.google.com/maps/place/Fish+Hatchery/@40.0417413,-74.994209,562m/data=!3m1!1e3!4m10!1m2!2m1!1s9201+North+Delaware+Avenue,+Philadelphia,+PA!3m6!1s0x89c6b495c14b1115:0x7120b8786b8bcf84!8m2!3d40.0431526!4d-74.9932302!9m1!1b1",Pleasant Hill Park,,9201 N DELAWARE AVE
491,401 W COTTMAN AVE,Burholme Park Driving Range,"https://www.google.com/maps/place/Burholme+Family+Fun+Center/@40.0671398,-75.0966768,979m/data=!3m2!1e3!5s0x89c6b6cc52a1a2f3:0xf799ebbe89d4b06a!4m15!1m7!3m6!1s0x89c6b6ccedbac56b:0xa21da9d7f5987ed4!2s401+Cottman+Ave,+Cheltenham,+PA+19012!3b1!8m2!3d40.0685356!4d-75.0925052!3m6!1s0x0:0xfd69b4c4acf18011!8m2!3d40.0673226!4d-75.0932071!9m1!1b1",Burholme Park,,401 W COTTMAN AVE
494,,Peters Island,"https://www.google.com/maps/place/Peters+Island/@39.9858017,-75.2088266,2289m/data=!3m1!1e3!4m7!3m6!1s0x89c6c775f6ddeea1:0xbaa2aa83b7dfd9a7!8m2!3d39.9884582!4d-75.2016849!9m1!1b1",Peters Island,,
495,5351 PARKSIDE AVE,Parkside Fields,"https://www.google.com/maps/place/Parkside+Evans+Playground/@39.981816,-75.2275933,370m/data=!3m1!1e3!4m15!1m7!3m6!1s0x89c6c7161ad10d7d:0x300fabd6b9441b5c!2s5351+Parkside+Ave,+Philadelphia,+PA+19131!3b1!8m2!3d39.9815537!4d-75.2240446!3m6!1s0x89c6c73e78c68cbb:0x9b52f83e13213811!8m2!3d39.9823913!4d-75.2266693!9m1!1b1",West Fairmount Park,,5351 PARKSIDE AVE
496,100 DUPONT ST,Manayunk Bridge,"https://www.google.com/maps/place/Manayunk+Bridge+Trail,+Pennsylvania/@40.0257112,-75.2283213,562m/data=!3m1!1e3!4m7!3m6!1s0x89c6b8bfaf9643db:0x7e07784c61852eb!8m2!3d40.0261302!4d-75.2267549!9m1!1b1",Manayunk Bridge,Manayunk Bridge,100 DUPONT ST
507,1843 N 16TH ST,Fletcher B Amos Playground,"https://www.google.com/maps/place/Amos+Playground/@39.981161,-75.160442,562m/data=!3m1!1e3!4m7!3m6!1s0x89c6c7e72b5b50c5:0x540f5ee4d0fe6f48!8m2!3d39.981161!4d-75.160442!9m1!1b1",Fletcher B Amos Playground,Fletcher B. Amos Playground,1843 N 16TH ST
508,,Bartrams Mile Trail Greenway,"https://www.google.com/maps/place/Bartram's+Mile+Trail/@39.9333026,-75.2108641,563m/data=!3m1!1e3!4m7!3m6!1s0x89c6c6851a8ee6bb:0x6141c710ae7c53b0!8m2!3d39.9333026!4d-75.2108641!9m1!1b1",Bartrams Mile Trail Greenway,,
509,1250 NOBLE ST,Rail Park,"https://www.google.com/maps/place/The+Rail+Park/@39.9601668,-75.1599756,562m/data=!3m1!1e3!4m7!3m6!1s0x89c6c7dc25ea5f13:0x456041fc06e8e739!8m2!3d39.9601668!4d-75.1599756!9m1!1b1",Rail Park,The Rail Park,1250 NOBLE ST
512,4301 GERMANTOWN AVE,Nicetown Park,"https://www.google.com/maps/place/Nicetown+Park/@40.0196185,-75.1557268,562m/data=!3m1!1e3!4m7!3m6!1s0x89c6b9755718887b:0x6675bea62c9d8ee5!8m2!3d40.0196185!4d-75.1557268!9m1!1b1",Nicetown Park,,4301 GERMANTOWN AVE
517,3101 S 56TH ST,Bartrams Mile Trail Greenway (56th),"https://www.google.com/maps/place/Bartram's+Plaza/@39.9289223,-75.2153428,563m/data=!3m1!1e3!4m15!1m7!3m6!1s0x89c6c69cb8d3a221:0xfcbca3327e44b2a2!2s3101+S+56th+St,+Philadelphia,+PA+19143!3b1!8m2!3d39.929021!4d-75.2129074!3m6!1s0x89c6c6832e1fe0ad:0xc52c36b0e24aa6b7!8m2!3d39.9285794!4d-75.2122482!9m1!1b1",Bartrams Mile Trail Greenway,,3101 S 56TH ST
518,1637 S 49TH ST,Bartrams Mile Trail Greenway (Grays Ferry),"https://www.google.com/maps/place/Bartram+North/@39.937923,-75.209179,563m/data=!3m1!1e3!4m15!1m7!3m6!1s0x89c6c68ed137cf8d:0x5c7947b70d004581!2s1637+S+49th+St,+Philadelphia,+PA+19143!3b1!8m2!3d39.9380875!4d-75.2075053!3m6!1s0x89c6c6892957b7e7:0x36203fd33241c9c!8m2!3d39.9374927!4d-75.2066939!9m1!1b1",Bartrams Mile Trail Greenway,,1637 S 49TH ST
520,2600 BENJAMIN FRANKLIN PKY,Philadelphia Museum of Art,"https://www.google.com/maps/place/Philadelphia+Museum+of+Art/@39.9655697,-75.1809661,562m/data=!3m1!1e3!4m7!3m6!1s0x89c6c5e645a890ff:0x8b2876210329c0d3!8m2!3d39.9655697!4d-75.1809661!9m1!1b1",East Fairmount Park,The Philadelphia Museum of Art,2600 BENJAMIN FRANKLIN PKY
69,3400 W GIRARD AVE,Philadelphia Zoo,"https://www.google.com/maps/place/Philadelphia+Zoo/@39.9719878,-75.1962708,570m/data=!3m1!1e3!4m7!3m6!1s0x89c6c77394277f8b:0xbfc7f1760bbf1a6a!8m2!3d39.9719878!4d-75.1962708!9m1!1b1",West Fairmount Park,,3400 W GIRARD AVE
